CompanyName,CompanyNumber,AddressCountry,AddressCounty,AddressTown,AddressPostCode,AddressLine1,AddressLine2,CompanyStatusId,CompanyCategoryId,CountryOfOriginId,BusinessActivityId,FullAddress,ReportingDate,CashBankInHand,TotalAssets,FixedAssets,Liabilities,NetWorth,Creditors,Debtors,DistrictId,IncorporationDate,HasAccountData,Exporter,DissolutionDate,CompanySizeId,HasPatent,HasGrant,AssetsLessCurrentLiabilities,Equity,AddressPostCodeValue
MARINE AND GENERAL MUTUAL LIFE ASSURANCE SOCIETY,6,ENGLAND,NULL,LONDON,EC4N 6AF,CMS CAMERON MCKENNA LLP CANNON PLACE,78 CANNON STREET,1,18,182,586,"CMS CAMERON MCKENNA LLP CANNON PLACE , 78 CANNON STREET , LONDON ,  , ENGLAND , EC4N 6AF",NULL,NULL,NULL,NULL,NULL,NULL,NULL,NULL,71,1862-10-25,NULL,0,2018-07-31,5,NULL,NULL,NULL,NULL,EC4N6AF
KENTSTONE PROPERTIES LIMITED,86,NULL,KENT,ASHFORD,TN25 6SX,SUITE 21 EVEGATE PARK BARN,SMEETH,1,17,182,601,"SUITE 21 EVEGATE PARK BARN , SMEETH , ASHFORD , KENT ,  , TN25 6SX",NULL,NULL,NULL,NULL,NULL,NULL,NULL,NULL,10,1862-11-27,NULL,0,NULL,5,NULL,NULL,NULL,NULL,TN256SX
ASHFORD CATTLE MARKET COMPANY LIMITED(THE),118,NULL,NULL,KENT,TN23 1DA,"11 BANK STREET,","ASHFORD,",1,17,182,390,"11 BANK STREET, , ASHFORD, , KENT ,  ,  , TN23 1DA",NULL,NULL,NULL,NULL,NULL,NULL,NULL,NULL,10,1856-09-25,NULL,0,NULL,5,NULL,NULL,NULL,NULL,TN231DA
"ORIENTAL GAS COMPANY, LIMITED(THE)",121,NULL,NULL,LONDON,EC4A 2EA,8TH FLOOR 167,FLEET STREET,1,17,182,610,"8TH FLOOR 167 , FLEET STREET , LONDON ,  ,  , EC4A 2EA",NULL,NULL,NULL,NULL,NULL,NULL,NULL,NULL,71,1856-09-26,NULL,0,NULL,5,NULL,NULL,NULL,NULL,EC4A2EA
BRITISH INDIA STEAM NAVIGATION COMPANY LIMITED,133,NULL,NULL,NULL,SW1E 5JQ,16 PALACE STREET,LONDON,1,17,182,499,"16 PALACE STREET , LONDON ,  ,  ,  , SW1E 5JQ",NULL,NULL,NULL,NULL,NULL,NULL,NULL,NULL,364,1856-09-29,NULL,0,NULL,5,NULL,NULL,NULL,NULL,SW1E5JQ
N & C BUILDING PRODUCTS LIMITED,140,NULL,ESSEX,ROMFORD,RM8  1SP,41-51 FRESHWATER ROAD,CHADWELL HEATH,1,17,182,436,"41-51 FRESHWATER ROAD , CHADWELL HEATH , ROMFORD , ESSEX ,  , RM8  1SP",NULL,NULL,NULL,NULL,NULL,NULL,NULL,NULL,13,1856-09-30,NULL,0,NULL,5,NULL,NULL,NULL,NULL,RM81SP
"UNION MARINE AND GENERAL INSURANCE COMPANY LIMITED,(THE)",182,NULL,NULL,LONDON,EC2P 2YU,30 FINSBURY SQUARE,NULL,5,17,182,757,"30 FINSBURY SQUARE ,  , LONDON ,  ,  , EC2P 2YU",NULL,NULL,NULL,NULL,NULL,NULL,NULL,NULL,168,1863-01-15,NULL,0,2018-01-31,5,NULL,NULL,NULL,NULL,EC2P2YU
00000258 LIMITED,258,NULL,BERKSHIRE,BRACKNELL,RG12 1AN,OCEAN HOUSE,THE RING,5,17,182,635,"OCEAN HOUSE , THE RING , BRACKNELL , BERKSHIRE ,  , RG12 1AN",NULL,NULL,NULL,NULL,NULL,NULL,NULL,NULL,32,1856-10-23,NULL,0,2022-02-28,5,NULL,NULL,NULL,NULL,RG121AN
METHODIST NEWSPAPER COMPANY LIMITED,295,ENGLAND,NULL,HUNSTANTON,PE36 6JG,LE STRANGE OLD BARNS GOLF COURSE ROAD,OLD HUNSTANTON,1,17,182,757,"LE STRANGE OLD BARNS GOLF COURSE ROAD , OLD HUNSTANTON , HUNSTANTON ,  , ENGLAND , PE36 6JG",2019-11-20 00:00:00.000,464749,932598,NULL,NULL,205590,727008,97496,171,1863-03-13,1,0,NULL,2,NULL,NULL,205590,205590,PE366JG
LONDON AND SUBURBAN LAND AND BUILDING COMPANY LIMITED(THE),371,ENGLAND,NULL,LONDON,SW1Y 6BN,2 DUKE STREET,"ST JAMES'S, 1ST FLOOR",1,17,182,757,"2 DUKE STREET , ST JAMES'S, 1ST FLOOR , LONDON ,  , ENGLAND , SW1Y 6BN",NULL,NULL,NULL,NULL,NULL,NULL,NULL,NULL,364,1863-05-01,NULL,0,NULL,5,NULL,NULL,NULL,NULL,SW1Y6BN
 THE BORNEO COMPANY,398,UNITED KINGDOM,NULL,LONDON,SE1  1SZ,10-18 UNION STREET,NULL,5,19,182,757,"10-18 UNION STREET ,  , LONDON ,  , UNITED KINGDOM , SE1  1SZ",NULL,NULL,NULL,NULL,NULL,NULL,NULL,NULL,299,1856-10-31,NULL,0,2014-06-30,5,NULL,NULL,NULL,NULL,SE11SZ
MILLBAY HOTEL LIMITED,402,NULL,NULL,PLYMOUTH,PL4  0RA,C/O FRANCIS CLARK LLP NORTH QUAY HOUSE,SUTTON HARBOUR,5,17,182,757,"C/O FRANCIS CLARK LLP NORTH QUAY HOUSE , SUTTON HARBOUR , PLYMOUTH ,  ,  , PL4  0RA",NULL,NULL,NULL,NULL,NULL,NULL,NULL,NULL,239,1863-05-19,NULL,0,2019-08-31,5,NULL,NULL,NULL,NULL,PL40RA
 SURREY GROUP LIMITED,425,NULL,NULL,LONDON,EC4Y 8BB,8 SALISBURY SQUARE,NULL,5,17,182,757,"8 SALISBURY SQUARE ,  , LONDON ,  ,  , EC4Y 8BB",NULL,NULL,NULL,NULL,NULL,NULL,NULL,NULL,71,1856-11-01,NULL,0,2013-05-31,5,NULL,NULL,NULL,NULL,EC4Y8BB
VERNON INVESTMENTS (1856) LIMITED,452,UNITED KINGDOM,BUCKS,BEACONSFIELD,HP9  2JH,C/O AZETS BURNHAM YARD,LONDON END,1,17,182,598,"C/O AZETS BURNHAM YARD , LONDON END , BEACONSFIELD , BUCKS , UNITED KINGDOM , HP9  2JH",2018-04-30 00:00:00.000,1968,37760,NULL,NULL,10335,27425,0,386,1856-11-03,1,0,NULL,1,NULL,NULL,10335,10335,HP92JH
B.L.HOLDINGS LIMITED,529,NULL,NULL,LONDON,W1H  7LX,YORK HOUSE,45 SEYMOUR STREET,1,17,182,358,"YORK HOUSE , 45 SEYMOUR STREET , LONDON ,  ,  , W1H  7LX",NULL,NULL,NULL,NULL,NULL,NULL,NULL,NULL,364,1856-11-04,NULL,0,NULL,5,NULL,NULL,NULL,NULL,W1H7LX
REIGATE INVESTMENT COMPANY LIMITED (THE),537,NULL,SURREY,REIGATE,RH2  7BG,14A BELL STREET,BELL STREET,1,17,182,598,"14A BELL STREET , BELL STREET , REIGATE , SURREY ,  , RH2  7BG",2018-06-30 00:00:00.000,NULL,622603,622603,NULL,62021,0,0,249,1863-07-16,1,0,NULL,2,NULL,NULL,62021,62021,RH27BG
 MOUNTLEIGH GROUP PUBLIC LIMITED COMPANY,587,NULL,NULL,NULL,EC4A 4HT,PLUMTREE COURT,LONDON,5,21,182,757,"PLUMTREE COURT , LONDON ,  ,  ,  , EC4A 4HT",NULL,NULL,NULL,NULL,NULL,NULL,NULL,NULL,71,1863-08-08,NULL,0,2014-04-30,5,NULL,NULL,NULL,NULL,EC4A4HT
NORTHERN MARITIME INSURANCE COMPANY LIMITED(THE),599,NULL,NULL,LONDON,EC2P 2YU,30 FINSBURY SQUARE,NULL,5,17,182,757,"30 FINSBURY SQUARE ,  , LONDON ,  ,  , EC2P 2YU",NULL,NULL,NULL,NULL,NULL,NULL,NULL,NULL,168,1863-08-17,NULL,0,2018-01-31,5,NULL,NULL,NULL,NULL,EC2P2YU
 SLALOM LAGER LIMITED,633,UNITED KINGDOM,NULL,LONDON,W1W  8BE,ELSLEY COURT,20-22 GREAT TITCHFIELD STREET,5,17,182,757,"ELSLEY COURT , 20-22 GREAT TITCHFIELD STREET , LONDON ,  , UNITED KINGDOM , W1W  8BE",NULL,NULL,NULL,NULL,NULL,NULL,NULL,NULL,364,1863-09-10,NULL,0,2014-01-31,5,NULL,NULL,NULL,NULL,W1W8BE
BRITISH INDIAN TEA COMPANY LIMITED,687,NULL,KENT,MAIDSTONE,ME17 4AB,LINTON PARK,LINTON,1,17,182,610,"LINTON PARK , LINTON , MAIDSTONE , KENT ,  , ME17 4AB",NULL,NULL,NULL,NULL,NULL,NULL,NULL,NULL,186,1863-10-10,NULL,0,NULL,5,NULL,NULL,NULL,NULL,ME174AB
BRAHMAPOOTRA TEA COMPANY LIMITED,827,NULL,WEST YORKSHIRE,MIRFIELD,WF14 9DQ,UNIT 2 SANDS INDUSTRIAL ESTATE,HUDDERSFIELD ROAD,5,17,182,39,"UNIT 2 SANDS INDUSTRIAL ESTATE , HUDDERSFIELD ROAD , MIRFIELD , WEST YORKSHIRE ,  , WF14 9DQ",NULL,NULL,NULL,NULL,NULL,NULL,NULL,NULL,174,1863-12-10,NULL,0,2019-02-28,5,NULL,NULL,NULL,NULL,WF149DQ
STAVELEY INDUSTRIES LIMITED,866,ENGLAND,NULL,UXBRIDGE,UB11 1FE,4 LONGWALK ROAD,STOCKLEY PARK,1,17,182,610,"4 LONGWALK ROAD , STOCKLEY PARK , UXBRIDGE ,  , ENGLAND , UB11 1FE",NULL,NULL,NULL,NULL,NULL,NULL,NULL,NULL,157,1863-12-29,NULL,0,NULL,5,NULL,NULL,NULL,NULL,UB111FE
GRESHAM HOUSE PLC,871,ENGLAND,NULL,LONDON,EC4A 3TW,5 NEW STREET SQUARE,NULL,1,21,182,585,"5 NEW STREET SQUARE ,  , LONDON ,  , ENGLAND , EC4A 3TW",NULL,NULL,NULL,NULL,NULL,NULL,NULL,NULL,71,1857-05-14,NULL,0,NULL,5,NULL,NULL,NULL,NULL,EC4A3TW
 BIRMINGHAM TEMPERANCE HALL COMPANY LIMITED(THE),899,NULL,NULL,LONDON,N2   0PZ,204 EAST END ROAD,EAST FINCHLEY,5,17,182,680,"204 EAST END ROAD , EAST FINCHLEY , LONDON ,  ,  , N2   0PZ",NULL,NULL,NULL,NULL,NULL,NULL,NULL,NULL,14,1857-06-06,NULL,0,2013-11-29,5,NULL,NULL,NULL,NULL,N20PZ
CNA INSURANCE COMPANY LIMITED,950,NULL,NULL,LONDON,EC3M 3BY,20 FENCHURCH STREET,NULL,1,17,182,587,"20 FENCHURCH STREET ,  , LONDON ,  ,  , EC3M 3BY",NULL,NULL,NULL,NULL,NULL,NULL,NULL,NULL,71,1864-02-08,NULL,0,NULL,5,NULL,NULL,NULL,NULL,EC3M3BY
B T R PROPERTY HOLDINGS LIMITED,1122,ENGLAND,NULL,TELFORD,TF3  3BL,SCHNEIDER ELECTRIC,STAFFORD PARK 5,1,17,182,680,"SCHNEIDER ELECTRIC , STAFFORD PARK 5 , TELFORD ,  , ENGLAND , TF3  3BL",NULL,NULL,NULL,NULL,NULL,NULL,NULL,NULL,325,1864-03-31,NULL,0,NULL,5,NULL,NULL,NULL,NULL,TF33BL
KVAERNER E&C HOLDINGS LIMITED,1125,NULL,NULL,LONDON,E1W  1DD,TOWER BRIDGE HOUSE,ST KATHARINES WAY,9,17,182,572,"TOWER BRIDGE HOUSE , ST KATHARINES WAY , LONDON ,  ,  , E1W  1DD",NULL,NULL,NULL,NULL,NULL,NULL,NULL,NULL,337,1864-04-01,NULL,0,NULL,5,NULL,NULL,NULL,NULL,E1W1DD
BRITISH STEEL TRADING LIMITED,1140,NULL,NULL,LONDON,SW1X 7HS,18 GROSVENOR PLACE,NULL,1,17,182,635,"18 GROSVENOR PLACE ,  , LONDON ,  ,  , SW1X 7HS",NULL,NULL,NULL,NULL,NULL,NULL,NULL,NULL,364,1864-04-04,NULL,0,NULL,5,NULL,NULL,NULL,NULL,SW1X7HS
THE TELEGRAPH CONSTRUCTION AND MAINTENANCE COMPANY LIMITED,1147,NULL,UNITED KINGDOM,LONDON,E1W  1DD,TOWER BRIDGE HOUSE,ST KATHARINE'S WAY,5,17,182,610,"TOWER BRIDGE HOUSE , ST KATHARINE'S WAY , LONDON , UNITED KINGDOM ,  , E1W  1DD",NULL,NULL,NULL,NULL,NULL,NULL,NULL,NULL,337,1864-04-07,NULL,0,2018-11-30,5,NULL,NULL,NULL,NULL,E1W1DD
CITY OF LONDON REAL PROPERTY COMPANY LIMITED(THE),1160,UNITED KINGDOM,NULL,LONDON,SW1E 5JL,100 VICTORIA STREET,NULL,1,17,182,601,"100 VICTORIA STREET ,  , LONDON ,  , UNITED KINGDOM , SW1E 5JL",NULL,NULL,NULL,NULL,NULL,NULL,NULL,NULL,364,1864-04-11,NULL,0,NULL,5,NULL,NULL,NULL,NULL,SW1E5JL
N.P.K. HOLDINGS LIMITED,1346,NULL,NULL,CAMBRIDGESHIRE,CB2  1NS,37 CAMBRIDGE PLACE,CAMBRIDGE,1,17,182,358,"37 CAMBRIDGE PLACE , CAMBRIDGE , CAMBRIDGESHIRE ,  ,  , CB2  1NS",NULL,NULL,NULL,NULL,NULL,NULL,NULL,NULL,50,1864-06-14,NULL,0,NULL,5,NULL,NULL,NULL,NULL,CB21NS
NEWSQUEST MEDIA (SOUTHERN) LIMITED,1350,NULL,BUCKINGHAMSHIRE,HIGH WYCOMBE,HP10 9TY,LOUDWATER MILL,STATION ROAD,1,17,182,757,"LOUDWATER MILL , STATION ROAD , HIGH WYCOMBE , BUCKINGHAMSHIRE ,  , HP10 9TY",NULL,NULL,NULL,NULL,NULL,NULL,NULL,NULL,386,1864-06-14,NULL,0,NULL,5,NULL,NULL,NULL,NULL,HP109TY
REFUGE ASSURANCE LIMITED,1364,NULL,NULL,NULL,EC3V 0RL,55 GRACECHURCH STREET,LONDON,1,17,182,596,"55 GRACECHURCH STREET , LONDON ,  ,  ,  , EC3V 0RL",2020-12-31 00:00:00.000,0.05,0.05,NULL,NULL,0.05,0,0,71,1864-06-20,1,0,NULL,1,NULL,NULL,NULL,0.05,EC3V0RL
PHOENIX LIFE ASSURANCE LIMITED,1419,NULL,NULL,BIRMINGHAM,B47  6WG,1 WYTHALL GREEN WAY,WYTHALL,1,17,182,586,"1 WYTHALL GREEN WAY , WYTHALL , BIRMINGHAM ,  ,  , B47  6WG",NULL,NULL,NULL,NULL,NULL,NULL,NULL,NULL,43,1864-07-11,NULL,0,NULL,5,NULL,NULL,NULL,NULL,B476WG
RYE CATTLE MARKET COMPANY LIMITED(THE),1452,NULL,NULL,E SUSSEX,TN31 7LJ,LANDGATE CHAMBERS,RYE,1,17,182,601,"LANDGATE CHAMBERS , RYE , E SUSSEX ,  ,  , TN31 7LJ",2019-03-31 00:00:00.000,473504,509704,NULL,NULL,444892,64443,6473,258,1859-02-17,1,0,NULL,2,NULL,NULL,445261,444892,TN317LJ
NATIONAL VULCAN ENGINEERING INSURANCE GROUP LIMITED,1471,NULL,WEST MIDLANDS,BIRMINGHAM,B3   3HN,C/O TENEO FINANCIAL ADVISORY LIMITED,156 GREAT CHARLES STREET,9,17,182,757,"C/O TENEO FINANCIAL ADVISORY LIMITED , 156 GREAT CHARLES STREET , BIRMINGHAM , WEST MIDLANDS ,  , B3   3HN",NULL,NULL,NULL,NULL,NULL,NULL,NULL,NULL,23,1864-07-25,NULL,0,NULL,5,NULL,NULL,NULL,NULL,B33HN
VULCAN REALISATIONS LIMITED,1556,NULL,NULL,LIVERPOOL,L3   9HF,BEGBIES TRAYNOR,1 OLD HALL STREET,9,17,182,635,"BEGBIES TRAYNOR , 1 OLD HALL STREET , LIVERPOOL ,  ,  , L3   9HF",NULL,NULL,NULL,NULL,NULL,NULL,NULL,NULL,184,1864-08-27,NULL,0,NULL,5,NULL,NULL,NULL,NULL,L39HF
 JOREHAUT TEA COMPANY LIMITED(THE),1572,NULL,NULL,OXON,OX28 6RE,37 MARKET SQUARE,WITNEY,5,17,182,572,"37 MARKET SQUARE , WITNEY , OXON ,  ,  , OX28 6RE",NULL,NULL,NULL,NULL,NULL,NULL,NULL,NULL,362,1859-06-29,NULL,0,2017-05-31,5,NULL,NULL,NULL,NULL,OX286RE
HUMBERSIDE LAND LIMITED,1615,NULL,SURREY,FETCHAM,KT22 9BN,HILL HOUSE,49 THE RIDGEWAY,1,17,182,601,"HILL HOUSE , 49 THE RIDGEWAY , FETCHAM , SURREY ,  , KT22 9BN",NULL,NULL,NULL,NULL,NULL,NULL,NULL,NULL,202,1864-09-22,NULL,0,NULL,5,NULL,NULL,NULL,NULL,KT229BN
REFLEXBOOST LIMITED,1706,NULL,WEST YORKSHIRE,NR HALIFAX,HX3  7PA,SHELF MILLS,SHELF,9,17,182,757,"SHELF MILLS , SHELF , NR HALIFAX , WEST YORKSHIRE ,  , HX3  7PA",NULL,NULL,NULL,NULL,NULL,NULL,NULL,NULL,49,1864-11-19,NULL,0,NULL,5,NULL,NULL,NULL,NULL,HX37PA
QUANTUM CLOTHING GROUP LIMITED,1812,ENGLAND,NULL,NOTTINGHAM,NG10 1BE,MOHAN BUSSINESS CENTRE TAMWORTH ROAD,LONG EATON,1,17,182,135,"MOHAN BUSSINESS CENTRE TAMWORTH ROAD , LONG EATON , NOTTINGHAM ,  , ENGLAND , NG10 1BE",NULL,NULL,NULL,NULL,NULL,NULL,NULL,NULL,119,1865-01-11,NULL,0,NULL,5,1,NULL,NULL,NULL,NG101BE
THE EAST LANCASHIRE PAPER GROUP LIMITED,1815,NULL,NULL,NULL,LS12 6NB,C/O RING LIMITED GELDERD ROAD,LEEDS,5,17,182,757,"C/O RING LIMITED GELDERD ROAD , LEEDS ,  ,  ,  , LS12 6NB",NULL,NULL,NULL,NULL,NULL,NULL,NULL,NULL,178,1860-03-29,NULL,0,2019-04-30,5,NULL,NULL,NULL,NULL,LS126NB
HILLIER'S BACON CURING COMPANY LIMITED,1954,NULL,GLOS,STROUD,GL6  0RG,NEWMARKET,NAILSWORTH,9,17,182,757,"NEWMARKET , NAILSWORTH , STROUD , GLOS ,  , GL6  0RG",NULL,NULL,NULL,NULL,NULL,NULL,NULL,NULL,312,1865-03-11,NULL,0,NULL,5,NULL,NULL,NULL,NULL,GL60RG
SOUTHSEA CLARENCE ESPLANADE PIER COMPANY LIMITED(THE),1955,NULL,NULL,HANTS,PO5  3AA,CLARENCE PIER,"SOUTHSEA,",1,17,182,750,"CLARENCE PIER , SOUTHSEA, , HANTS ,  ,  , PO5  3AA",2019-03-31 00:00:00.000,10519,3729485,2860500,NULL,3486109,39825,705312,241,1860-08-14,1,0,NULL,3,NULL,NULL,3689660,3486109,PO53AA
DVHL1 LIMITED,1978,NULL,CHESTER,ECCLESTON,CH4  9ET,THE GROSVENOR ESTATE,EATON ESTATE OFFICE,1,17,182,757,"THE GROSVENOR ESTATE , EATON ESTATE OFFICE , ECCLESTON , CHESTER ,  , CH4  9ET",NULL,NULL,NULL,NULL,NULL,NULL,NULL,NULL,65,1865-03-20,NULL,0,NULL,5,NULL,NULL,NULL,NULL,CH49ET
 GRAND PARADE PIER LIMITED,2019,NULL,LANCASHIRE,CHORLEY,PR7  6EA,GLEADHILL HOUSE DAWBERS LANE,EUXTON,5,17,182,757,"GLEADHILL HOUSE DAWBERS LANE , EUXTON , CHORLEY , LANCASHIRE ,  , PR7  6EA",NULL,NULL,NULL,NULL,NULL,NULL,NULL,NULL,69,1865-04-03,NULL,0,2017-04-30,5,NULL,NULL,NULL,NULL,PR76EA
LLOYDS BANK PLC,2065,NULL,NULL,LONDON,EC2V 7HN,25 GRESHAM STREET,NULL,1,21,182,565,"25 GRESHAM STREET ,  , LONDON ,  ,  , EC2V 7HN",NULL,NULL,NULL,NULL,NULL,NULL,NULL,NULL,71,1865-04-20,NULL,0,NULL,5,NULL,NULL,NULL,NULL,EC2V7HN
MANCHESTER COMMERCIAL BUILDINGS COMPANY LIMITED,2069,NULL,BERKSHIRE,WOKINGHAM,RG41 5TS,1020 ESKDALE ROAD,WINNERSH,5,17,182,601,"1020 ESKDALE ROAD , WINNERSH , WOKINGHAM , BERKSHIRE ,  , RG41 5TS",NULL,NULL,NULL,NULL,NULL,NULL,NULL,NULL,372,1865-04-21,NULL,0,2017-12-31,5,NULL,NULL,NULL,NULL,RG415TS
"BURY BREWERY COMPANY,LIMITED(THE)",2119,ENGLAND,LANCASHIRE,BLACKBURN,BB2  7LB,MYERSCOUGH ROAD,MELLOR BROOK,1,17,182,531,"MYERSCOUGH ROAD , MELLOR BROOK , BLACKBURN , LANCASHIRE , ENGLAND , BB2  7LB",NULL,NULL,NULL,NULL,NULL,NULL,NULL,NULL,252,1861-01-23,NULL,0,NULL,5,NULL,NULL,NULL,NULL,BB27LB
WHITBREAD INTERNATIONAL LIMITED,2120,NULL,BEDFORDSHIRE,DUNSTABLE,LU5  5XE,WHITBREAD COURT HOUGHTON HALL,BUSINESS PARK PORZ AVENUE,1,17,182,757,"WHITBREAD COURT HOUGHTON HALL , BUSINESS PARK PORZ AVENUE , DUNSTABLE , BEDFORDSHIRE ,  , LU5  5XE",NULL,NULL,NULL,NULL,NULL,NULL,NULL,NULL,58,1861-01-23,NULL,0,NULL,5,NULL,NULL,NULL,NULL,LU55XE
KEIGHLEY FLEECE MILLS COMPANY LIMITED,2364,ENGLAND,WEST YORKSHIRE,HUDDERSFIELD,HD7  4JG,VICTORIA MILLS VICTORIA LANE,GOLCAR,1,17,182,598,"VICTORIA MILLS VICTORIA LANE , GOLCAR , HUDDERSFIELD , WEST YORKSHIRE , ENGLAND , HD7  4JG",NULL,NULL,NULL,NULL,NULL,NULL,NULL,NULL,174,1865-08-14,NULL,0,NULL,5,NULL,NULL,NULL,NULL,HD74JG
THRELFALLS (LIVERPOOL & BIRKENHEAD) LIMITED,2400,NULL,BEDFORDSHIRE,"PORZ AVENUE, DUNSTABLE",LU5  5XE,WHITBREAD COURT,HOUGHTON HALL BUSINESS PARK,1,17,182,757,"WHITBREAD COURT , HOUGHTON HALL BUSINESS PARK , PORZ AVENUE, DUNSTABLE , BEDFORDSHIRE ,  , LU5  5XE",NULL,NULL,NULL,NULL,NULL,NULL,NULL,NULL,58,1865-08-29,NULL,0,NULL,5,NULL,NULL,NULL,NULL,LU55XE
SOUTHAMPTON ISLE OF WIGHT AND SOUTH OF ENGLAND ROYAL MAIL STEAM PACKET COMPANY LIMITED,2404,NULL,NULL,HAMPSHIRE,SO14 2JY,12 BUGLE STREET,SOUTHAMPTON,1,17,182,498,"12 BUGLE STREET , SOUTHAMPTON , HAMPSHIRE ,  ,  , SO14 2JY",NULL,NULL,NULL,NULL,NULL,NULL,NULL,NULL,297,1861-09-10,NULL,0,NULL,5,NULL,NULL,NULL,NULL,SO142JY
BRABY-FULLER LIMITED,2537,NULL,BERKSHIRE,READING,RG7  4SD,KPMG,ARLINGTON BUSINESS PARK THEALE,9,17,182,635,"KPMG , ARLINGTON BUSINESS PARK THEALE , READING , BERKSHIRE ,  , RG7  4SD",NULL,NULL,NULL,NULL,NULL,NULL,NULL,NULL,355,1865-10-24,NULL,0,NULL,5,NULL,NULL,NULL,NULL,RG74SD
GILLINGHAM POTTERY BRICK AND TILE COMPANY LIMITED(THE),2687,NULL,HAMPSHIRE,FLEET,GU51 3DZ,41 ADAMS DRIVE,NULL,1,17,182,598,"41 ADAMS DRIVE ,  , FLEET , HAMPSHIRE ,  , GU51 3DZ",2018-04-05 00:00:00.000,263263,3853570,3573267,NULL,3494639,27929,17040,148,1865-12-15,1,0,NULL,3,NULL,NULL,3825641,3494639,GU513DZ
LAMPORT & HOLT LINE LIMITED,2694,UNITED KINGDOM,NULL,NEWCASTLE UPON TYNE,NE1  8AQ,THE PEARL,7 NEW BRIDGE STREET WEST,1,17,182,757,"THE PEARL , 7 NEW BRIDGE STREET WEST , NEWCASTLE UPON TYNE ,  , UNITED KINGDOM , NE1  8AQ",NULL,NULL,NULL,NULL,NULL,NULL,NULL,NULL,208,1865-12-18,NULL,0,NULL,5,NULL,NULL,NULL,NULL,NE18AQ
CUMBRIAN NEWSPAPERS LIMITED,2729,ENGLAND,NULL,HIGH WYCOMBE,HP10 9TY,LOUDWATER STATION ROAD,LOUDWATER,5,17,182,757,"LOUDWATER STATION ROAD , LOUDWATER , HIGH WYCOMBE ,  , ENGLAND , HP10 9TY",NULL,NULL,NULL,NULL,NULL,NULL,NULL,NULL,386,1866-01-01,NULL,0,2020-01-31,5,NULL,NULL,NULL,NULL,HP109TY
THE LOWER NORWOOD CO-OPERATIVE BUILDING COMPANY LIMITED,2793,ENGLAND,NULL,SHEFFIELD,S1   2PP,C/O TAYLOR & EMMET LLP,ARUNDEL GATE,1,17,182,601,"C/O TAYLOR & EMMET LLP , ARUNDEL GATE , SHEFFIELD ,  , ENGLAND , S1   2PP",NULL,NULL,NULL,NULL,NULL,NULL,NULL,NULL,274,1862-08-08,NULL,0,NULL,5,NULL,NULL,NULL,NULL,S12PP
LLOYDS BANK (BLSA),2854,NULL,NULL,LONDON,SE1  2AF,1 MORE LONDON PLACE,NULL,5,19,182,757,"1 MORE LONDON PLACE ,  , LONDON ,  ,  , SE1  2AF",NULL,NULL,NULL,NULL,NULL,NULL,NULL,NULL,299,1862-09-27,NULL,0,2019-04-30,5,NULL,NULL,NULL,NULL,SE12AF
STANDARD CHARTERED AFRICA LIMITED,2877,NULL,NULL,LONDON,EC2V 5DD,1 BASINGHALL AVENUE,NULL,1,17,182,585,"1 BASINGHALL AVENUE ,  , LONDON ,  ,  , EC2V 5DD",NULL,NULL,NULL,NULL,NULL,NULL,NULL,NULL,71,1862-10-15,NULL,0,NULL,5,NULL,NULL,NULL,NULL,EC2V5DD
YORKSHIRE POST NEWSPAPERS LIMITED,2899,NULL,NULL,MANCHESTER,M2   4WB,SHIP CANAL HOUSE 8TH FLOOR,98 KING STREET,5,17,182,757,"SHIP CANAL HOUSE 8TH FLOOR , 98 KING STREET , MANCHESTER ,  ,  , M2   4WB",NULL,NULL,NULL,NULL,NULL,NULL,NULL,NULL,189,1866-03-08,NULL,0,2020-12-31,5,NULL,NULL,NULL,NULL,M24WB
HASTINGS AND SAINT LEONARDS BUILDING AND INVESTMENT COMPANY LIMITED,2920,NULL,NULL,NULL,TN34 1DJ,"41 CAMBRIDGE ROAD,",HASTINGS,1,17,182,601,"41 CAMBRIDGE ROAD, , HASTINGS ,  ,  ,  , TN34 1DJ",2019-12-31 00:00:00.000,145239,1329703,NULL,NULL,1250103,77156,39472,150,1862-11-01,1,0,NULL,2,NULL,NULL,1252547,1250103,TN341DJ
THE SOUTH LONDON CO-OPERATIVE BUILDING COMPANY LIMITED,2928,NULL,NULL,LONDON,SE27 9DJ,501 NORWOOD ROAD,NULL,1,17,182,601,"501 NORWOOD ROAD ,  , LONDON ,  ,  , SE27 9DJ",NULL,NULL,NULL,NULL,NULL,NULL,NULL,NULL,176,1866-03-29,NULL,0,NULL,5,NULL,NULL,NULL,NULL,SE279DJ
WIKE MILL COMPANY LIMITED.(THE),2980,ENGLAND,ENGLAND,BRADFORD,BD8  9TF,CUMBERLAND HOUSE,GREENSIDE LANE,1,17,182,757,"CUMBERLAND HOUSE , GREENSIDE LANE , BRADFORD , ENGLAND , ENGLAND , BD8  9TF",NULL,NULL,NULL,NULL,NULL,NULL,NULL,NULL,33,1866-04-09,NULL,0,NULL,5,NULL,NULL,NULL,NULL,BD89TF
BA (GI) LIMITED,3002,ENGLAND,NULL,LONDON,EC3M 4AJ,"4TH FLOOR, 8",FENCHURCH PLACE,1,17,182,587,"4TH FLOOR, 8 , FENCHURCH PLACE , LONDON ,  , ENGLAND , EC3M 4AJ",NULL,NULL,NULL,NULL,NULL,NULL,NULL,NULL,71,1866-04-12,NULL,0,NULL,5,NULL,NULL,NULL,NULL,EC3M4AJ
NALDER AND NALDER LIMITED,3006,NULL,NULL,OXFORD,OX2  7JL,5 SOUTH PARADE,SUMMERTOWN,1,17,182,601,"5 SOUTH PARADE , SUMMERTOWN , OXFORD ,  ,  , OX2  7JL",NULL,NULL,NULL,NULL,NULL,NULL,NULL,NULL,234,1866-04-16,NULL,0,NULL,5,NULL,NULL,NULL,NULL,OX27JL
FENNY COMPTON WATER COMPANY LIMITED(THE),3284,ENGLAND,NULL,SOUTHAM,CV47 2WB,16 FIELD GATE LANE,FENNY COMPTON,1,17,182,349,"16 FIELD GATE LANE , FENNY COMPTON , SOUTHAM ,  , ENGLAND , CV47 2WB",2019-12-31 00:00:00.000,6112,13585,NULL,NULL,7039,5199,383,311,1866-10-13,1,0,NULL,1,NULL,NULL,8386,7039,CV472WB
 FRIENDS SLPS LIMITED,3413,NULL,HAMPSHIRE,SOUTHAMPTON,SO15 2DP,NO 1,DORSET STREET,5,17,182,757,"NO 1 , DORSET STREET , SOUTHAMPTON , HAMPSHIRE ,  , SO15 2DP",NULL,NULL,NULL,NULL,NULL,NULL,NULL,NULL,297,1867-01-08,NULL,0,2016-12-30,5,NULL,NULL,NULL,NULL,SO152DP
SKIPTON MILL COMPANY LIMITED(THE),3467,ENGLAND,NULL,HARROGATE,HG1  4ST,12 GRANBY ROAD,NULL,1,17,182,757,"12 GRANBY ROAD ,  , HARROGATE ,  , ENGLAND , HG1  4ST",2020-05-31 00:00:00.000,NULL,0,NULL,NULL,0,0,0,146,1867-03-22,1,0,NULL,1,NULL,NULL,0,0,HG14ST
VINTERS ENGINEERING LIMITED,3543,NULL,DERBYSHIRE,DERBY,DE24 8BJ,ROLLS ROYCE PLC,MOOR LANE,1,17,182,309,"ROLLS ROYCE PLC , MOOR LANE , DERBY , DERBYSHIRE ,  , DE24 8BJ",NULL,NULL,NULL,NULL,NULL,NULL,NULL,NULL,89,1867-04-17,NULL,0,NULL,5,NULL,NULL,NULL,NULL,DE248BJ
BRITISH AND FOREIGN MARINE INSURANCE COMPANY LIMITED,3671,NULL,NULL,LONDON,EC2P 2YU,30 FINSBURY SQUARE,NULL,5,17,182,757,"30 FINSBURY SQUARE ,  , LONDON ,  ,  , EC2P 2YU",NULL,NULL,NULL,NULL,NULL,NULL,NULL,NULL,168,1867-08-05,NULL,0,2018-01-31,5,NULL,NULL,NULL,NULL,EC2P2YU
 WITHY GROVE PRESS LIMITED,3672,NULL,NULL,LONDON,EC2A 4EG,2ND FLOOR 1 MARK SQUARE,LEONARD STREET,5,17,182,757,"2ND FLOOR 1 MARK SQUARE , LEONARD STREET , LONDON ,  ,  , EC2A 4EG",NULL,NULL,NULL,NULL,NULL,NULL,NULL,NULL,139,1867-08-06,NULL,0,2015-12-31,5,NULL,NULL,NULL,NULL,EC2A4EG
EVANS'S COTTAGE HOMES,3846,UNITED KINGDOM,WORCESTERSHIRE,BROMSGROVE,B61  7JY,64 KIDDERMINSTER ROAD,NULL,1,18,182,526,"64 KIDDERMINSTER ROAD ,  , BROMSGROVE , WORCESTERSHIRE , UNITED KINGDOM , B61  7JY",NULL,NULL,NULL,NULL,NULL,NULL,NULL,NULL,43,1868-01-06,NULL,0,NULL,5,NULL,NULL,NULL,NULL,B617JY
CASTLETON BOWLING CLUB LIMITED,4190,NULL,NULL,ROCHDALE,OL11 3RT,"ASHTON STREET,","MEREFIELD,",1,17,182,601,"ASHTON STREET, , MEREFIELD, , ROCHDALE ,  ,  , OL11 3RT",NULL,NULL,NULL,NULL,NULL,NULL,NULL,NULL,255,1868-11-02,NULL,0,NULL,5,NULL,NULL,NULL,NULL,OL113RT
PA MEDIA GROUP LIMITED,4197,ENGLAND,NULL,LONDON,W2   1AF,THE POINT 37 NORTH WHARF ROAD,PADDINGTON,1,17,182,562,"THE POINT 37 NORTH WHARF ROAD , PADDINGTON , LONDON ,  , ENGLAND , W2   1AF",NULL,NULL,NULL,NULL,NULL,NULL,NULL,NULL,364,1868-11-06,NULL,0,NULL,5,NULL,NULL,NULL,NULL,W21AF
INVESTMENT COMPANY PLC(THE),4205,ENGLAND,DEVON,NEWTON ABBOT,TQ12 2QS,"SUITE 8, BRIDGE HOUSE",COURTENAY STREET,1,21,182,573,"SUITE 8, BRIDGE HOUSE , COURTENAY STREET , NEWTON ABBOT , DEVON , ENGLAND , TQ12 2QS",NULL,NULL,NULL,NULL,NULL,NULL,NULL,NULL,324,1868-11-14,NULL,0,NULL,5,NULL,NULL,NULL,NULL,TQ122QS
RYLANDS-WHITECROSS LIMITED,4273,NULL,WEST YORKSHIRE,BRADFORD,BD12 0PX,PARK HOUSE ROAD,LOW MOOR,1,17,182,757,"PARK HOUSE ROAD , LOW MOOR , BRADFORD , WEST YORKSHIRE ,  , BD12 0PX",NULL,NULL,NULL,NULL,NULL,NULL,NULL,NULL,33,1869-01-19,NULL,0,NULL,5,NULL,NULL,NULL,NULL,BD120PX
LIVERPOOL LAW SOCIETY,4302,ENGLAND,NULL,LIVERPOOL,L3   9NY,HELIX SECOND FLOOR,EDMUND STREET,1,15,182,733,"HELIX SECOND FLOOR , EDMUND STREET , LIVERPOOL ,  , ENGLAND , L3   9NY",NULL,NULL,NULL,NULL,NULL,NULL,NULL,NULL,184,1869-02-13,NULL,0,NULL,5,NULL,NULL,NULL,NULL,L39NY
LONDON GUARANTEE & REINSURANCE COMPANY LIMITED,4403,NULL,NULL,LONDON,EC2P 2YU,30 FINSBURY SQUARE,NULL,5,17,182,757,"30 FINSBURY SQUARE ,  , LONDON ,  ,  , EC2P 2YU",NULL,NULL,NULL,NULL,NULL,NULL,NULL,NULL,168,1869-05-01,NULL,0,2018-01-31,5,NULL,NULL,NULL,NULL,EC2P2YU
THE LIVERPOOL COLLEGE FOUNDATION,4466,NULL,NULL,LIVERPOOL,L18  8BG,BEECHLANDS LIVERPOOL COLLEGE,MOSSLEY HILL,1,15,182,757,"BEECHLANDS LIVERPOOL COLLEGE , MOSSLEY HILL , LIVERPOOL ,  ,  , L18  8BG",NULL,NULL,NULL,NULL,NULL,NULL,NULL,NULL,184,1869-07-02,NULL,0,NULL,5,NULL,NULL,NULL,NULL,L188BG
ASHOVER HYDROPATHIC COMPANY LIMITED,4474,NULL,SURREY,NUTFIELD,RH1  4HW,ROBERT DENHOLM HOUSE,BLETCHINGLEY ROAD,5,17,182,680,"ROBERT DENHOLM HOUSE , BLETCHINGLEY ROAD , NUTFIELD , SURREY ,  , RH1  4HW",NULL,NULL,NULL,NULL,NULL,NULL,NULL,NULL,322,1869-07-12,NULL,0,2018-04-30,5,NULL,NULL,NULL,NULL,RH14HW
FRIENDS LIFE FPLMA LIMITED,4599,UNITED KINGDOM,NULL,YORK,YO90 1WR,AVIVA,WELLINGTON ROW,1,17,182,757,"AVIVA , WELLINGTON ROW , YORK ,  , UNITED KINGDOM , YO90 1WR",NULL,NULL,NULL,NULL,NULL,NULL,NULL,NULL,381,1869-10-27,NULL,0,NULL,5,NULL,NULL,NULL,NULL,YO901WR
 CARDIFF AND PROVINCIAL PROPERTIES LIMITED,4600,UNITED KINGDOM,NULL,LONDON,W1H  5EP,MERIDIEN HOUSE,42 UPPER BERKELEY STREET,5,17,182,572,"MERIDIEN HOUSE , 42 UPPER BERKELEY STREET , LONDON ,  , UNITED KINGDOM , W1H  5EP",NULL,NULL,NULL,NULL,NULL,NULL,NULL,NULL,364,1869-10-22,NULL,0,2014-07-31,5,NULL,NULL,NULL,NULL,W1H5EP
00004606 LIMITED,4606,NULL,NULL,GREATER MANCHESTER,M2   3EY,100 BARBIROLLI SQUARE,MANCHESTER,2,17,182,635,"100 BARBIROLLI SQUARE , MANCHESTER , GREATER MANCHESTER ,  ,  , M2   3EY",NULL,NULL,NULL,NULL,NULL,NULL,NULL,NULL,189,1869-10-27,NULL,0,NULL,5,NULL,NULL,NULL,NULL,M23EY
LONDON ROWING CLUB LIMITED,4711,NULL,NULL,LONDON,SW15 1LB,LONDON ROWING CLUB,EMBANKMENT,1,17,182,726,"LONDON ROWING CLUB , EMBANKMENT , LONDON ,  ,  , SW15 1LB",NULL,NULL,NULL,NULL,NULL,NULL,NULL,NULL,346,1870-01-22,NULL,0,NULL,5,NULL,NULL,NULL,NULL,SW151LB
LIVERPOOL SOCIETY OF CHARTERED ACCOUNTANTS,4869,ENGLAND,NULL,BOOTLE,L20  7EP,ORIEL HOUSE,ORIEL ROAD,1,15,182,634,"ORIEL HOUSE , ORIEL ROAD , BOOTLE ,  , ENGLAND , L20  7EP",2017-12-31 00:00:00.000,60791,91301,NULL,NULL,75804,15497,30360,271,1870-04-20,1,0,NULL,1,NULL,NULL,75804,75804,L207EP
LEEDS LAW SOCIETY(THE),5017,NULL,NULL,LEEDS,LS1  2EE,62 WELLINGTON STREET,NULL,1,15,182,733,"62 WELLINGTON STREET ,  , LEEDS ,  ,  , LS1  2EE",2018-12-31 00:00:00.000,149859,2237525,NULL,NULL,2166665,70860,40958,178,1870-07-13,1,0,NULL,2,NULL,NULL,2166665,2166665,LS12EE
INCORPORATED COUNCIL OF LAW REPORTING FOR ENGLAND AND WALES   (THE),5034,NULL,NULL,NULL,WC2A 1PP,MEGARRY HOUSE 119 CHANCERY LANE,LONDON,1,14,182,536,"MEGARRY HOUSE 119 CHANCERY LANE , LONDON ,  ,  ,  , WC2A 1PP",NULL,NULL,NULL,NULL,NULL,NULL,NULL,NULL,364,1870-07-28,NULL,0,NULL,5,NULL,NULL,NULL,NULL,WC2A1PP
REIGATE STOCK SHARE AND ESTATES COMPANY LIMITED,5116,NULL,WEST SUSSEX,CRAWLEY,RH10 1JA,BELMONT HOUSE,STATION WAY,1,17,182,598,"BELMONT HOUSE , STATION WAY , CRAWLEY , WEST SUSSEX ,  , RH10 1JA",2019-09-30 00:00:00.000,9685,9407503,14330,NULL,9403048,8910,9383488,82,1870-10-06,1,0,NULL,3,NULL,NULL,9403048,9403048,RH101JA
BIRMINGHAM LAW SOCIETY(THE),5188,NULL,NULL,BIRMINGHAM,B2   5BG,"SUITE 101,CHELTENHAM HOUSE",14-16 TEMPLE STREET,1,15,182,733,"SUITE 101,CHELTENHAM HOUSE , 14-16 TEMPLE STREET , BIRMINGHAM ,  ,  , B2   5BG",NULL,NULL,NULL,NULL,NULL,NULL,NULL,NULL,23,1870-12-09,NULL,0,NULL,5,NULL,NULL,NULL,NULL,B25BG
HEYWOOD BOWLING CLUB LIMITED(THE),5193,NULL,NULL,LANCS,OL10 4UY,"QUEENS PARK ROAD,","HEYWOOD,",1,17,182,731,"QUEENS PARK ROAD, , HEYWOOD, , LANCS ,  ,  , OL10 4UY",2019-07-31 00:00:00.000,NULL,39260,26183,NULL,27070,12190,0,255,1870-12-13,1,0,NULL,1,NULL,NULL,28222,27070,OL104UY
MANCHESTER LAW SOCIETY(THE),5254,NULL,NULL,MANCHESTER,M3   3BN,RATIONAL HOUSE,64 BRIDGE STREET,1,15,182,605,"RATIONAL HOUSE , 64 BRIDGE STREET , MANCHESTER ,  ,  , M3   3BN",NULL,NULL,NULL,NULL,NULL,NULL,NULL,NULL,189,1871-01-19,NULL,0,NULL,5,NULL,NULL,NULL,NULL,M33BN
FOROSOPHOBIA LIMITED,5263,ENGLAND,NULL,LONDON,WC1X 8TA,69-73 THEOBALDS ROAD,NULL,1,17,182,757,"69-73 THEOBALDS ROAD ,  , LONDON ,  , ENGLAND , WC1X 8TA",2020-03-31 00:00:00.000,NULL,1,NULL,NULL,1,0,0,51,1871-01-28,1,0,NULL,1,NULL,NULL,1,1,WC1X8TA
MCCORQUODALE LEASING LIMITED,5279,ENGLAND,BEDFORDSHIRE,LUTON,LU1  3LG,100 CAPABILITY GREEN,NULL,5,17,182,757,"100 CAPABILITY GREEN ,  , LUTON , BEDFORDSHIRE , ENGLAND , LU1  3LG",NULL,NULL,NULL,NULL,NULL,NULL,NULL,NULL,185,1871-02-08,NULL,0,2020-04-30,5,NULL,NULL,NULL,NULL,LU13LG
VAL DE TRAVERS ASPHALTE LIMITED,5292,NULL,NULL,BIRMINGHAM,B37  7BQ,PORTLAND HOUSE BICKENHILL LANE,SOLIHULL,1,17,182,757,"PORTLAND HOUSE BICKENHILL LANE , SOLIHULL , BIRMINGHAM ,  ,  , B37  7BQ",NULL,NULL,NULL,NULL,NULL,NULL,NULL,NULL,279,1871-02-15,NULL,0,NULL,5,NULL,NULL,NULL,NULL,B377BQ
BRISTOL LAW SOCIETY(THE),5295,ENGLAND,NULL,BRISTOL,BS1  4ST,12 COLSTON AVENUE,NULL,1,15,182,700,"12 COLSTON AVENUE ,  , BRISTOL ,  , ENGLAND , BS1  4ST",2018-11-30 00:00:00.000,67050,451937,NULL,NULL,241932,210005,15498,40,1871-02-18,1,0,NULL,2,NULL,NULL,392267,241932,BS14ST
CAMELOT ESTATES LIMITED,5335,NULL,HANTS,SOUTHAMPTON,SO15 2AY,BELLEVUE HOUSE SUITE 7,BELLEVUE ROAD,1,17,182,680,"BELLEVUE HOUSE SUITE 7 , BELLEVUE ROAD , SOUTHAMPTON , HANTS ,  , SO15 2AY",NULL,NULL,NULL,NULL,NULL,NULL,NULL,NULL,297,1871-03-18,NULL,0,NULL,5,NULL,NULL,NULL,NULL,SO152AY
PUBLIC PICTURE GALLERY FUND BIRMINGHAM,5409,UNITED KINGDOM,WEST MIDLANDS,BIRMINGHAM,B3   2AB,78-84 COLMORE ROW,NULL,1,18,182,750,"78-84 COLMORE ROW ,  , BIRMINGHAM , WEST MIDLANDS , UNITED KINGDOM , B3   2AB",NULL,NULL,NULL,NULL,NULL,NULL,NULL,NULL,23,1871-05-05,NULL,0,NULL,5,NULL,NULL,NULL,NULL,B32AB
FALLOWFIELD BOWLING AND LAWN TENNIS CLUB LIMITED,5418,NULL,NULL,MANCHESTER,M14  6BN,"PAVILION 81 WELLINGTON RD,","FALLOWFIELD,",1,17,182,480,"PAVILION 81 WELLINGTON RD, , FALLOWFIELD, , MANCHESTER ,  ,  , M14  6BN",2019-03-31 00:00:00.000,NULL,313193,309481,NULL,313012,98,0,189,1871-05-10,1,0,NULL,1,NULL,NULL,315762,313012,M146BN
LIMMER HOLDINGS LIMITED,5428,NULL,NULL,WEST MIDLANDS,B3   2DL,2 CORNWALL STREET,BIRMINGHAM,1,17,182,635,"2 CORNWALL STREET , BIRMINGHAM , WEST MIDLANDS ,  ,  , B3   2DL",NULL,NULL,NULL,NULL,NULL,NULL,NULL,NULL,23,1871-05-12,NULL,0,NULL,5,NULL,NULL,NULL,NULL,B32DL
PLYMOUTH LAW SOCIETY,5452,NULL,DEVON,PLYMOUTH,PL4  0BN,SALT QUAY HOUSE 4 NORTH EAST QUAY,SUTTON HARBOUR,1,15,182,605,"SALT QUAY HOUSE 4 NORTH EAST QUAY , SUTTON HARBOUR , PLYMOUTH , DEVON ,  , PL4  0BN",2020-09-30 00:00:00.000,33116,33591,NULL,NULL,32126,1465,0,239,1871-05-31,1,0,NULL,1,NULL,NULL,NULL,32126,PL40BN
NEWCASTLE UPON TYNE LAW SOCIETY,5506,NULL,TYNE AND WEAR,NEWCASTLE UPON TYNE,NE1  8SF,COLLEGE HOUSE,NORTHUMBERLAND ROAD,1,14,182,733,"COLLEGE HOUSE , NORTHUMBERLAND ROAD , NEWCASTLE UPON TYNE , TYNE AND WEAR ,  , NE1  8SF",NULL,NULL,NULL,NULL,NULL,NULL,NULL,NULL,208,1871-06-26,NULL,0,NULL,5,NULL,NULL,NULL,NULL,NE18SF
BURNSMITH LIMITED,5728,NULL,TYNE & WEAR,SOUTH SHIELDS,NE33 5TE,PROGRESS HOUSE,TEMPLETOWN,1,17,182,635,"PROGRESS HOUSE , TEMPLETOWN , SOUTH SHIELDS , TYNE & WEAR ,  , NE33 5TE",NULL,NULL,NULL,NULL,NULL,NULL,NULL,NULL,296,1871-10-02,NULL,0,NULL,5,NULL,NULL,NULL,NULL,NE335TE
WIBSEY PERSEVERANCE MILL COMPANY LIMITED(THE),5775,NULL,WEST YORKSHIRE,"BRADFORD,",BD6  3HR,MILL STREET,"WIBSEY,",1,17,182,599,"MILL STREET , WIBSEY, , BRADFORD, , WEST YORKSHIRE ,  , BD6  3HR",2019-12-31 00:00:00.000,91969,423899,NULL,NULL,367414,52207,19677,383,1871-10-23,1,0,NULL,2,NULL,NULL,371692,367414,BD63HR
SAMUEL FOX AND COMPANY LIMITED,5799,NULL,NULL,BIRMINGHAM,B3   3HN,C/O TENEO RESTRUCTURING LIMITED 156 GREAT CHARLES STREET,QUEENSWAY,9,17,182,635,"C/O TENEO RESTRUCTURING LIMITED 156 GREAT CHARLES STREET , QUEENSWAY , BIRMINGHAM ,  ,  , B3   3HN",NULL,NULL,NULL,NULL,NULL,NULL,NULL,NULL,23,1871-11-01,NULL,0,NULL,5,NULL,NULL,NULL,NULL,B33HN
CHINA NAVIGATION COMPANY LIMITED(THE),6005,UNITED KINGDOM,NULL,LONDON,SW1E 6AJ,SWIRE HOUSE,59 BUCKINGHAM GATE,1,17,182,572,"SWIRE HOUSE , 59 BUCKINGHAM GATE , LONDON ,  , UNITED KINGDOM , SW1E 6AJ",NULL,NULL,NULL,NULL,NULL,NULL,NULL,NULL,364,1872-01-31,NULL,0,NULL,5,NULL,NULL,NULL,NULL,SW1E6AJ
LIVERPOOL ESTATE COMPANY LIMITED(THE),6008,NULL,LIVERPOOL,11-13 VICTORIA STREET,L2   5QQ,C/O GUY WILLIAMS LAYTON,SOLICITORS PACIFIC CHAMBERS,5,17,182,757,"C/O GUY WILLIAMS LAYTON , SOLICITORS PACIFIC CHAMBERS , 11-13 VICTORIA STREET , LIVERPOOL ,  , L2   5QQ",NULL,NULL,NULL,NULL,NULL,NULL,NULL,NULL,184,1872-02-02,NULL,0,2018-03-31,5,NULL,NULL,NULL,NULL,L25QQ
CRAVEN DUNNILL & CO.LIMITED,6028,NULL,NULL,SHROPSHIRE,WV15 6AS,STOURBRIDGE ROAD,BRIDGNORTH,1,17,182,441,"STOURBRIDGE ROAD , BRIDGNORTH , SHROPSHIRE ,  ,  , WV15 6AS",NULL,NULL,NULL,NULL,NULL,NULL,NULL,NULL,277,1872-02-09,NULL,0,NULL,5,NULL,NULL,NULL,NULL,WV156AS
GENERAL CONFERENCE OF THE NEW CHURCH(THE),6039,NULL,WARWICKSHIRE,ATHERSTONE,CV9  2RQ,PURLEY CHASE CENTRE PURLEY CHASE LANE,MANCETTER,1,15,182,735,"PURLEY CHASE CENTRE PURLEY CHASE LANE , MANCETTER , ATHERSTONE , WARWICKSHIRE ,  , CV9  2RQ",NULL,NULL,NULL,NULL,NULL,NULL,NULL,NULL,224,1872-02-16,NULL,0,NULL,5,NULL,NULL,NULL,NULL,CV92RQ
GENERAL ACCIDENT EXECUTOR AND TRUSTEE COMPANY LIMITED,6252,NULL,NULL,LONDON,EC2A 1AG,30 FINSBURY SQUARE,NULL,5,17,182,680,"30 FINSBURY SQUARE ,  , LONDON ,  ,  , EC2A 1AG",NULL,NULL,NULL,NULL,NULL,NULL,NULL,NULL,168,1872-05-07,NULL,0,2021-11-30,5,NULL,NULL,NULL,NULL,EC2A1AG
APOLLO STEELS LIMITED,6278,UNITED KINGDOM,NULL,OSSETT,WF5  9TP,UNIT 5,SILKWOOD COURT,1,17,182,757,"UNIT 5 , SILKWOOD COURT , OSSETT ,  , UNITED KINGDOM , WF5  9TP",NULL,NULL,NULL,NULL,NULL,NULL,NULL,NULL,343,1872-05-17,NULL,0,NULL,5,NULL,NULL,NULL,NULL,WF59TP
MILK STREET HOLDINGS LIMITED,6313,ENGLAND,NULL,BISHOP'S STORTFORD,CM23 2ND,11 WINDHILL,NULL,1,17,182,757,"11 WINDHILL ,  , BISHOP'S STORTFORD ,  , ENGLAND , CM23 2ND",NULL,NULL,NULL,NULL,NULL,NULL,NULL,NULL,103,1872-05-29,NULL,0,NULL,5,NULL,NULL,NULL,NULL,CM232ND
EASTERN TELEGRAPH COMPANY LIMITED(THE),6338,UNITED KINGDOM,NULL,LONDON,W6   8BS,GRIFFIN HOUSE,161 HAMMERSMITH ROAD,1,17,182,554,"GRIFFIN HOUSE , 161 HAMMERSMITH ROAD , LONDON ,  , UNITED KINGDOM , W6   8BS",NULL,NULL,NULL,NULL,NULL,NULL,NULL,NULL,142,1872-06-06,NULL,0,NULL,5,NULL,NULL,NULL,NULL,W68BS
METHODIST INSURANCE PUBLIC LIMITED COMPANY,6369,UNITED KINGDOM,NULL,GLOUCESTER,GL3  4AW,"BENEFACT HOUSE, 2000 PIONEER AVENUE","GLOUCESTER BUSINESS PARK, BROCKWORTH",1,21,182,587,"BENEFACT HOUSE, 2000 PIONEER AVENUE , GLOUCESTER BUSINESS PARK, BROCKWORTH , GLOUCESTER ,  , UNITED KINGDOM , GL3  4AW",NULL,NULL,NULL,NULL,NULL,NULL,NULL,NULL,328,1872-06-19,NULL,0,NULL,5,NULL,NULL,NULL,NULL,GL34AW
THE GIRLS' DAY SCHOOL TRUST,6400,ENGLAND,NULL,LONDON,SW1E 5DH,10 BRESSENDEN PLACE,NULL,1,16,182,690,"10 BRESSENDEN PLACE ,  , LONDON ,  , ENGLAND , SW1E 5DH",NULL,NULL,NULL,NULL,NULL,NULL,NULL,NULL,364,1872-06-26,NULL,0,NULL,5,NULL,NULL,NULL,NULL,SW1E5DH
BRITISH STEEL SERVICE CENTRES LIMITED,6470,NULL,WEST MIDLANDS,BIRMINGHAM,B3   3HN,C/O TENEO RESTRUCTURING LIMITED 156 GREAT CHARLES STREET,QUEENSWAY,5,17,182,221,"C/O TENEO RESTRUCTURING LIMITED 156 GREAT CHARLES STREET , QUEENSWAY , BIRMINGHAM , WEST MIDLANDS ,  , B3   3HN",NULL,NULL,NULL,NULL,NULL,NULL,NULL,NULL,23,1872-07-18,NULL,0,2022-04-30,5,NULL,NULL,NULL,NULL,B33HN
BARNAGORE JUTE FACTORY PLC(THE),6480,NULL,NULL,LONDON,WC1N 2PH,1 DOUGHTY STREET,NULL,1,21,182,331,"1 DOUGHTY STREET ,  , LONDON ,  ,  , WC1N 2PH",NULL,NULL,NULL,NULL,NULL,NULL,NULL,NULL,51,1872-07-22,NULL,0,NULL,5,NULL,NULL,NULL,NULL,WC1N2PH
BERKSHIRE REAL PROPERTY COMPANY LIMITED,6610,NULL,BERKS,NEWBURY,RG20 8HB,WORMSTALL,WICKHAM,5,17,182,598,"WORMSTALL , WICKHAM , NEWBURY , BERKS ,  , RG20 8HB",NULL,NULL,NULL,NULL,NULL,NULL,NULL,NULL,355,1872-09-16,NULL,0,2018-06-30,5,NULL,NULL,NULL,NULL,RG208HB
KVAERNER METALS LIMITED,6662,NULL,NULL,LONDON,E1W  1DD,TOWER BRIDGE HOUSE,ST KATHARINES WAY,9,17,182,572,"TOWER BRIDGE HOUSE , ST KATHARINES WAY , LONDON ,  ,  , E1W  1DD",NULL,NULL,NULL,NULL,NULL,NULL,NULL,NULL,337,1872-10-10,NULL,0,NULL,5,NULL,NULL,NULL,NULL,E1W1DD
 MALDON IRONWORKS LIMITED,6772,NULL,NULL,NORFOLK,NULL,RIVERSIDE WORKS,NORWICH,5,17,182,757,"RIVERSIDE WORKS , NORWICH , NORFOLK ,  ,  , ",NULL,NULL,NULL,NULL,NULL,NULL,NULL,NULL,383,1872-03-26,NULL,0,2016-08-31,5,NULL,NULL,NULL,NULL,NULL
WESTERN TELEGRAPH COMPANY LIMITED,6886,UNITED KINGDOM,NULL,LONDON,W6   8BS,GRIFFIN HOUSE,161 HAMMERSMITH ROAD,1,17,182,757,"GRIFFIN HOUSE , 161 HAMMERSMITH ROAD , LONDON ,  , UNITED KINGDOM , W6   8BS",NULL,NULL,NULL,NULL,NULL,NULL,NULL,NULL,142,1873-01-08,NULL,0,NULL,5,NULL,NULL,NULL,NULL,W68BS
LONDON MERCHANT SECURITIES LIMITED,7064,NULL,NULL,NULL,W1S  2ER,25 SAVILE ROW,LONDON,1,17,182,572,"25 SAVILE ROW , LONDON ,  ,  ,  , W1S  2ER",NULL,NULL,NULL,NULL,NULL,NULL,NULL,NULL,364,1873-03-12,NULL,0,NULL,5,NULL,NULL,NULL,NULL,W1S2ER
TRIPLEX LLOYD AUTOMOTIVE PRODUCTS LIMITED,7101,NULL,NULL,MANCHESTER,M1   6HT,ST JAMES BUILDING,79 OXFORD STREET,5,17,182,635,"ST JAMES BUILDING , 79 OXFORD STREET , MANCHESTER ,  ,  , M1   6HT",NULL,NULL,NULL,NULL,NULL,NULL,NULL,NULL,189,1873-03-21,NULL,0,2020-07-31,5,NULL,NULL,NULL,NULL,M16HT
RIO TINTO WESTERN HOLDINGS LIMITED,7132,UNITED KINGDOM,NULL,LONDON,SW1Y 4AD,6 ST JAMES'S SQUARE,NULL,1,17,182,610,"6 ST JAMES'S SQUARE ,  , LONDON ,  , UNITED KINGDOM , SW1Y 4AD",NULL,NULL,NULL,NULL,NULL,NULL,NULL,NULL,364,1873-03-29,NULL,0,NULL,5,NULL,NULL,NULL,NULL,SW1Y4AD
ROLLS-ROYCE INDUSTRIAL POWER (OVERSEAS PROJECTS) LIMITED,7180,NULL,NULL,NULL,DE24 8BJ,MOOR LANE,DERBY,5,17,182,680,"MOOR LANE , DERBY ,  ,  ,  , DE24 8BJ",NULL,NULL,NULL,NULL,NULL,NULL,NULL,NULL,89,1873-04-10,NULL,0,2018-10-31,5,NULL,NULL,NULL,NULL,DE248BJ
BOWDON BOWLING AND LAWN TENNIS CLUB (1873) LTD,7241,NULL,CHESHIRE,ALTRINCHAM,WA14 2PG,THE CLUBHOUSE,WINTON ROAD BOWDON,1,17,182,725,"THE CLUBHOUSE , WINTON ROAD BOWDON , ALTRINCHAM , CHESHIRE ,  , WA14 2PG",2019-11-30 00:00:00.000,NULL,85,NULL,NULL,85,0,0,338,1873-04-28,1,0,NULL,1,NULL,NULL,85,85,WA142PG
HAWTIN PUBLIC LIMITED COMPANY,7317,NULL,WEST YORKSHIRE,LEEDS,LS1  4JP,BENSON HOUSE 33,WELLINGTON STREET,5,21,182,757,"BENSON HOUSE 33 , WELLINGTON STREET , LEEDS , WEST YORKSHIRE ,  , LS1  4JP",NULL,NULL,NULL,NULL,NULL,NULL,NULL,NULL,178,1873-05-16,NULL,0,2012-07-31,5,NULL,NULL,NULL,NULL,LS14JP
"SOWERBY AND CO.,LIMITED",7362,NULL,NULL,EAST YORKSHIRE,DN14 9AA,COWICK HALL SNAITH,GOOLE,1,17,182,757,"COWICK HALL SNAITH , GOOLE , EAST YORKSHIRE ,  ,  , DN14 9AA",NULL,NULL,NULL,NULL,NULL,NULL,NULL,NULL,108,1873-06-05,NULL,0,NULL,5,NULL,NULL,NULL,NULL,DN149AA
 LEICESTERSHIRE CLUB COMPANY LIMITED,7398,ENGLAND,LEICESTERSHIRE,LEICESTER,LE19 1WP,CHARNWOOD HOUSE HARCOURT WAY,MERIDIAN BUSINESS PARK,5,17,182,358,"CHARNWOOD HOUSE HARCOURT WAY , MERIDIAN BUSINESS PARK , LEICESTER , LEICESTERSHIRE , ENGLAND , LE19 1WP",NULL,NULL,NULL,NULL,NULL,NULL,NULL,NULL,24,1873-06-19,NULL,0,2016-05-31,5,NULL,NULL,NULL,NULL,LE191WP
HALLAMSHIRE STEEL CO.LIMITED(THE),7399,NULL,NULL,BIRMINGHAM,B3   3HN,C/O TENEO RESTRUCTURING LIMITED 156 GREAT CHARLES STREET,QUEENSWAY,5,17,182,635,"C/O TENEO RESTRUCTURING LIMITED 156 GREAT CHARLES STREET , QUEENSWAY , BIRMINGHAM ,  ,  , B3   3HN",NULL,NULL,NULL,NULL,NULL,NULL,NULL,NULL,23,1873-06-19,NULL,0,2022-04-30,5,NULL,NULL,NULL,NULL,B33HN
TUTTLE AND SON LIMITED,7420,NULL,NULL,LONDON,NW1  3AN,2 TRITON SQUARE,REGENTS PLACE,1,17,182,757,"2 TRITON SQUARE , REGENTS PLACE , LONDON ,  ,  , NW1  3AN",NULL,NULL,NULL,NULL,NULL,NULL,NULL,NULL,51,1873-06-27,NULL,0,NULL,5,NULL,NULL,NULL,NULL,NW13AN
WEST HEATON BOWLING CLUB LIMITED,7464,NULL,MANCHESTER,WITHINGTON,M20  3BN,PROGRESS HOUSE,396 WILMSLOW ROAD,1,17,182,729,"PROGRESS HOUSE , 396 WILMSLOW ROAD , WITHINGTON , MANCHESTER ,  , M20  3BN",2019-09-30 00:00:00.000,NULL,38364,NULL,NULL,-37816,76180,0,189,1873-07-11,1,0,NULL,1,NULL,NULL,NULL,-37816,M203BN
WILLIAM SINCLAIR HORTICULTURE LIMITED,7633,NULL,NULL,BIRMINGHAM,B4   6GH,KPMG LLP ONE SNOWHILL,SNOW HILL QUEENSWAY,5,17,182,79,"KPMG LLP ONE SNOWHILL , SNOW HILL QUEENSWAY , BIRMINGHAM ,  ,  , B4   6GH",NULL,NULL,NULL,NULL,NULL,NULL,NULL,NULL,23,1873-09-08,NULL,0,2019-08-31,5,NULL,NULL,NULL,NULL,B46GH
BRIGHTON COLLEGE,7663,NULL,EAST SUSSEX,BRIGHTON,BN2  0AL,BRIGHTON COLLEGE,EASTERN ROAD,1,15,182,690,"BRIGHTON COLLEGE , EASTERN ROAD , BRIGHTON , EAST SUSSEX ,  , BN2  0AL",NULL,NULL,NULL,NULL,NULL,NULL,NULL,NULL,39,1873-09-18,NULL,0,NULL,5,NULL,NULL,NULL,NULL,BN20AL
AMBER CENTRE ESTATES LIMITED,7704,NULL,NULL,BRISTOL,BS2  0HQ,C/O FRP ADVISORY,KINGS ORCHARD,5,17,182,757,"C/O FRP ADVISORY , KINGS ORCHARD , BRISTOL ,  ,  , BS2  0HQ",NULL,NULL,NULL,NULL,NULL,NULL,NULL,NULL,40,1873-10-07,NULL,0,2020-09-30,5,NULL,NULL,NULL,NULL,BS20HQ
MITCHELL'S AUCTION COMPANY LIMITED,7796,NULL,CUMBRIA,COCKERMOUTH,CA13 0QQ,LAKELAND LIVESTOCK CENTRE,LAKELAND AGRICULTURAL CENTRE,1,17,182,634,"LAKELAND LIVESTOCK CENTRE , LAKELAND AGRICULTURAL CENTRE , COCKERMOUTH , CUMBRIA ,  , CA13 0QQ",NULL,NULL,NULL,NULL,NULL,NULL,NULL,NULL,4,1873-11-08,NULL,1,NULL,5,NULL,NULL,NULL,NULL,CA130QQ
CHESTER DIOCESAN BOARD OF FINANCE,7826,NULL,CHESHIRE,WARRINGTON,WA4  4GE,5500 DARESBURY PARK,DARESBURY,1,15,182,735,"5500 DARESBURY PARK , DARESBURY , WARRINGTON , CHESHIRE ,  , WA4  4GE",NULL,NULL,NULL,NULL,NULL,NULL,NULL,NULL,140,1873-11-18,NULL,0,NULL,5,NULL,NULL,NULL,NULL,WA44GE
JOSHUA HOYLE & SONS LIMITED,7903,NULL,NULL,LEEDS,LS14 1PQ,GLENDEVON HOUSE HAWTHORN PARK,COAL ROAD,9,17,182,756,"GLENDEVON HOUSE HAWTHORN PARK , COAL ROAD , LEEDS ,  ,  , LS14 1PQ",NULL,NULL,NULL,NULL,NULL,NULL,NULL,NULL,178,1873-12-12,NULL,0,NULL,5,NULL,NULL,NULL,NULL,LS141PQ
 YORKSHIRE HERALD NEWSPAPER COMPANY LIMITED(THE),7970,NULL,BUCKINGHAMSHIRE,HIGH WYCOMBE,HP10 9TY,LOUDWATER MILL,STATION ROAD,5,17,182,757,"LOUDWATER MILL , STATION ROAD , HIGH WYCOMBE , BUCKINGHAMSHIRE ,  , HP10 9TY",NULL,NULL,NULL,NULL,NULL,NULL,NULL,NULL,386,1874-01-07,NULL,0,2017-10-31,5,NULL,NULL,NULL,NULL,HP109TY
BIRKBECK SECURITIES LIMITED,8032,NULL,WEST MIDLANDS,SUTTON COLDFIELD,B73  6AP,4 KING EDWARDS COURT,NULL,1,17,182,610,"4 KING EDWARDS COURT ,  , SUTTON COLDFIELD , WEST MIDLANDS ,  , B73  6AP",NULL,NULL,NULL,NULL,NULL,NULL,NULL,NULL,23,1874-01-27,NULL,0,NULL,5,NULL,NULL,NULL,NULL,B736AP
BIRKDALE PARK LAND COMPANY LIMITED,8087,UNITED KINGDOM,MERSEYSIDE,WIRRAL,CH47 2BG,35B MARKET STREET,HOYLAKE,1,17,182,585,"35B MARKET STREET , HOYLAKE , WIRRAL , MERSEYSIDE , UNITED KINGDOM , CH47 2BG",2019-03-31 00:00:00.000,NULL,1758261,1645704,NULL,1621736,75704,0,370,1874-02-20,1,0,NULL,2,NULL,NULL,1682557,1621736,CH472BG
WHITAL ENGINEERING LIMITED,8308,NULL,"CHESHIRE,  CH1  4JB",CHESTER,CH1  4JB,"VICTORIA WORKS,",WALLS AVENUE,9,17,182,757,"VICTORIA WORKS, , WALLS AVENUE , CHESTER , CHESHIRE,  CH1  4JB ,  , CH1  4JB",NULL,NULL,NULL,NULL,NULL,NULL,NULL,NULL,65,1874-04-29,NULL,0,NULL,5,NULL,NULL,NULL,NULL,CH14JB
THE LIVERPOOL CHAMBER OF COMMERCE AND INDUSTRY,8324,UNITED KINGDOM,MERSEYSIDE,LIVERPOOL,L3   4BJ,SUITE 26 CENTURY BUILDINGS,BRUNSWICK BUSINESS PARK,5,15,182,757,"SUITE 26 CENTURY BUILDINGS , BRUNSWICK BUSINESS PARK , LIVERPOOL , MERSEYSIDE , UNITED KINGDOM , L3   4BJ",NULL,NULL,NULL,NULL,NULL,NULL,NULL,NULL,184,1874-05-05,NULL,0,2012-08-31,5,NULL,NULL,NULL,NULL,L34BJ
HOLYWELL TEXTILE MILLS LIMITED(THE),8384,NULL,N.WALES,"HOLYWELL,",CH8  7NU,"UPPER MILL,","29 GREENFIELD ST,",2,17,182,757,"UPPER MILL, , 29 GREENFIELD ST, , HOLYWELL, , N.WALES ,  , CH8  7NU",NULL,NULL,NULL,NULL,NULL,NULL,NULL,NULL,125,1874-05-20,NULL,0,NULL,5,NULL,NULL,NULL,NULL,CH87NU
MANOR PARK CEMETERY COMPANY LIMITED,8415,NULL,LONDON,FOREST GATE,E7   0NP,THE CEMETERY,SEBERT ROAD,1,17,182,757,"THE CEMETERY , SEBERT ROAD , FOREST GATE , LONDON ,  , E7   0NP",NULL,NULL,NULL,NULL,NULL,NULL,NULL,NULL,210,1874-05-29,NULL,0,NULL,5,NULL,NULL,NULL,NULL,E70NP
STADCO LIMITED,8614,ENGLAND,SHROPSHIRE,TELFORD,TF1  7LL,STADCO LIMITED QUEENSWAY,HORTONWOOD,1,17,182,305,"STADCO LIMITED QUEENSWAY , HORTONWOOD , TELFORD , SHROPSHIRE , ENGLAND , TF1  7LL",NULL,NULL,NULL,NULL,NULL,NULL,NULL,NULL,325,1874-07-31,NULL,0,NULL,5,NULL,1,NULL,NULL,TF17LL
"BRISTOL CHAMBER OF COMMERCE, INDUSTRY AND SHIPPING",8752,NULL,NULL,BRISTOL,BS8  3RA,LEIGH COURT BUSINESS CENTRE,ABBOTS LEIGH,1,15,182,732,"LEIGH COURT BUSINESS CENTRE , ABBOTS LEIGH , BRISTOL ,  ,  , BS8  3RA",2020-03-31 00:00:00.000,NULL,2890461,2890461,NULL,2890461,0,0,222,1874-09-16,1,0,NULL,2,NULL,NULL,2890461,2890461,BS83RA
BIRMINGHAM MEDICAL INSTITUTE(THE),8756,ENGLAND,NULL,BIRMINGHAM,NULL,75 HARBORNE ROAD,NULL,1,15,182,757,"75 HARBORNE ROAD ,  , BIRMINGHAM ,  , ENGLAND , ",NULL,NULL,NULL,NULL,NULL,NULL,NULL,NULL,383,1874-09-17,NULL,0,NULL,5,NULL,NULL,NULL,NULL,NULL
BRITISH MEDICAL ASSOCIATION,8848,NULL,NULL,LONDON,WC1H 9JP,BMA HOUSE BRITISH MEDICAL ASSOCIATION,TAVISTOCK SQUARE,1,15,182,634,"BMA HOUSE BRITISH MEDICAL ASSOCIATION , TAVISTOCK SQUARE , LONDON ,  ,  , WC1H 9JP",NULL,NULL,NULL,NULL,NULL,NULL,NULL,NULL,51,1874-10-21,NULL,0,NULL,5,NULL,NULL,NULL,NULL,WC1H9JP
WORKING MEN'S COLLEGE CORPORATION,8894,NULL,NULL,NULL,NW1  1TR,44 CROWNDALE ROAD,LONDON,1,15,182,694,"44 CROWNDALE ROAD , LONDON ,  ,  ,  , NW1  1TR",NULL,NULL,NULL,NULL,NULL,NULL,NULL,NULL,51,1874-11-04,NULL,0,NULL,5,NULL,NULL,NULL,NULL,NW11TR
GROVE MILL PAPER COMPANY LIMITED(THE),8912,ENGLAND,NULL,HALIFAX,HX4  9PY,C/O SONOCO CORES & PAPER LTD STAINLAND BOARD MILLS,HOLYWELL GREEN,1,17,182,757,"C/O SONOCO CORES & PAPER LTD STAINLAND BOARD MILLS , HOLYWELL GREEN , HALIFAX ,  , ENGLAND , HX4  9PY",NULL,NULL,NULL,NULL,NULL,NULL,NULL,NULL,49,1874-11-12,NULL,0,NULL,5,NULL,NULL,NULL,NULL,HX49PY
SHEFFIELD MASONIC HALL COMPANY LIMITED.(THE),8952,NULL,SHEFFIELD,FULWOOD ROAD,S10  3BU,"TAPTON HALL,","SHORE LANE,",1,17,182,530,"TAPTON HALL, , SHORE LANE, , FULWOOD ROAD , SHEFFIELD ,  , S10  3BU",NULL,NULL,NULL,NULL,NULL,NULL,NULL,NULL,274,1874-11-24,NULL,0,NULL,5,NULL,NULL,NULL,NULL,S103BU
WERNETH RING MILLS LIMITED(THE),8985,NULL,NULL,MANCHESTER,M2   5NT,THE LEXICON,MOUNT STREET,1,17,182,757,"THE LEXICON , MOUNT STREET , MANCHESTER ,  ,  , M2   5NT",NULL,NULL,NULL,NULL,NULL,NULL,NULL,NULL,189,1874-12-04,NULL,0,NULL,5,NULL,NULL,NULL,NULL,M25NT
HYTHE PIER COMPANY LIMITED,9029,NULL,NULL,SOUTHAMPTON,SO45 6AU,"HOTSPUR HOUSE,","HYTHE,",5,17,182,757,"HOTSPUR HOUSE, , HYTHE, , SOUTHAMPTON ,  ,  , SO45 6AU",2019-01-31 00:00:00.000,NULL,477,NULL,NULL,477,0,0,206,1874-12-15,1,0,2021-06-30,1,NULL,NULL,477,477,SO456AU
ALBERT BOWLING CLUB LIMITED,9117,NULL,NULL,MANCHESTER,M20  2PA,39-41 OLD LANSDOWNE ROAD,WEST DIDSBURY,1,17,182,601,"39-41 OLD LANSDOWNE ROAD , WEST DIDSBURY , MANCHESTER ,  ,  , M20  2PA",2018-12-31 00:00:00.000,NULL,1152,NULL,NULL,-2233,3385,14,189,1875-01-16,1,0,NULL,1,NULL,NULL,-2233,-2233,M202PA
THE MID YORKSHIRE CHAMBER OF COMMERCE AND INDUSTRY LIMITED,9141,ENGLAND,NULL,HUDDERSFIELD,HD2  1GQ,"UNIT 3 FIRST FLOOR, PENNINE BUSINESS PARK LONGBOW CLOSE",BRADLEY,1,15,182,680,"UNIT 3 FIRST FLOOR, PENNINE BUSINESS PARK LONGBOW CLOSE , BRADLEY , HUDDERSFIELD ,  , ENGLAND , HD2  1GQ",2018-12-31 00:00:00.000,577001,712786,1783,NULL,224636,488150,134002,174,1875-01-22,1,0,NULL,2,NULL,NULL,224636,224636,HD21GQ
MANCHESTER LITERARY AND PHILOSOPHICAL SOCIETY,9330,ENGLAND,NULL,MANCHESTER,M4   6WX,COLONY JACTIN HOUSE 24 HOOD STREET,ANCOATS,1,15,182,700,"COLONY JACTIN HOUSE 24 HOOD STREET , ANCOATS , MANCHESTER ,  , ENGLAND , M4   6WX",NULL,NULL,NULL,NULL,NULL,NULL,NULL,NULL,189,1875-03-22,NULL,0,NULL,5,NULL,NULL,NULL,NULL,M46WX
LADBROKES INVESTMENTS HOLDINGS LIMITED,9336,UNITED KINGDOM,NULL,LONDON,EC4M 9AF,3RD FLOOR,ONE NEW CHANGE,1,17,182,572,"3RD FLOOR , ONE NEW CHANGE , LONDON ,  , UNITED KINGDOM , EC4M 9AF",NULL,NULL,NULL,NULL,NULL,NULL,NULL,NULL,71,1875-03-24,NULL,0,NULL,5,NULL,NULL,NULL,NULL,EC4M9AF
COCKER BROTHERS LIMITED,9413,NULL,SOUTH YORKSHIRE,SHEFFIELD,S9   1JD,FIRTH HOUSE PO BOX 644,MEADOWHALL ROAD,5,17,182,635,"FIRTH HOUSE PO BOX 644 , MEADOWHALL ROAD , SHEFFIELD , SOUTH YORKSHIRE ,  , S9   1JD",NULL,NULL,NULL,NULL,NULL,NULL,NULL,NULL,274,1875-04-17,NULL,0,2020-01-31,5,NULL,NULL,NULL,NULL,S91JD
SINGLETON BIRCH LIMITED,9433,UNITED KINGDOM,NORTH LINCOLNSHIRE,BARNETBY,DN38 6AE,SINGLETON BIRCH LIMITED,MELTON ROSS QUARRIES,1,17,182,74,"SINGLETON BIRCH LIMITED , MELTON ROSS QUARRIES , BARNETBY , NORTH LINCOLNSHIRE , UNITED KINGDOM , DN38 6AE",NULL,NULL,NULL,NULL,NULL,NULL,NULL,NULL,220,1875-04-23,NULL,0,NULL,5,1,NULL,NULL,NULL,DN386AE
 MATTHEW BROWN LIMITED,9446,NULL,NULL,LONDON,W1W  8BE,ELSLEY COURT,20-22 GREAT TITCHFIELD STREET,5,17,182,757,"ELSLEY COURT , 20-22 GREAT TITCHFIELD STREET , LONDON ,  ,  , W1W  8BE",NULL,NULL,NULL,NULL,NULL,NULL,NULL,NULL,364,1875-04-27,NULL,0,2015-04-30,5,NULL,NULL,NULL,NULL,W1W8BE
 CRAVEN HERALD LIMITED(THE),9551,NULL,BUCKINGHAMSHIRE,HIGH WYCOMBE,HP10 9TY,LOUDWATER MILL,STATION ROAD,5,17,182,757,"LOUDWATER MILL , STATION ROAD , HIGH WYCOMBE , BUCKINGHAMSHIRE ,  , HP10 9TY",NULL,NULL,NULL,NULL,NULL,NULL,NULL,NULL,386,1875-06-03,NULL,0,2017-10-31,5,NULL,NULL,NULL,NULL,HP109TY
REDCAR RACECOURSE LIMITED,9592,NULL,NULL,CLEVELAND,TS10 2BY,THE RACECOURSE,REDCAR,1,17,182,725,"THE RACECOURSE , REDCAR , CLEVELAND ,  ,  , TS10 2BY",NULL,NULL,NULL,NULL,NULL,NULL,NULL,NULL,247,1875-06-14,NULL,0,NULL,5,NULL,NULL,NULL,NULL,TS102BY
SHORTHORN SOCIETY OF THE UNITED KINGDOM OF GREAT BRITAIN AND IRELAND,9597,ENGLAND,NULL,KENILWORTH,CV8  2RG,"SOCIETY PAVILION, AVENUE M",STONELEIGH PARK,1,14,182,737,"SOCIETY PAVILION, AVENUE M , STONELEIGH PARK , KENILWORTH ,  , ENGLAND , CV8  2RG",NULL,NULL,NULL,NULL,NULL,NULL,NULL,NULL,348,1875-06-15,NULL,0,NULL,5,NULL,NULL,NULL,NULL,CV82RG
HULL & HUMBER CHAMBER OF COMMERCE INDUSTRY & SHIPPING,9604,NULL,NULL,EAST YORKSHIRE,HU3  1YE,34/38 BEVERLEY ROAD,HULL,1,15,182,732,"34/38 BEVERLEY ROAD , HULL , EAST YORKSHIRE ,  ,  , HU3  1YE",NULL,NULL,NULL,NULL,NULL,NULL,NULL,NULL,172,1875-06-16,NULL,0,NULL,5,NULL,NULL,NULL,NULL,HU31YE
BRITISH CHAMBERS OF COMMERCE,9635,NULL,NULL,LONDON,SW1H 9EU,65 PETTY FRANCE,NULL,1,14,182,732,"65 PETTY FRANCE ,  , LONDON ,  ,  , SW1H 9EU",NULL,NULL,NULL,NULL,NULL,NULL,NULL,NULL,364,1875-06-28,NULL,0,NULL,5,NULL,NULL,NULL,NULL,SW1H9EU
HAMPSHIRE CHAMBER OF COMMERCE,9806,ENGLAND,HAMPSHIRE,FAREHAM,PO14 1NH,FAREHAM COLLEGE,BISHOPSFIELD ROAD,1,15,182,680,"FAREHAM COLLEGE , BISHOPSFIELD ROAD , FAREHAM , HAMPSHIRE , ENGLAND , PO14 1NH",NULL,NULL,NULL,NULL,NULL,NULL,NULL,NULL,122,1875-08-30,NULL,0,NULL,5,NULL,1,NULL,NULL,PO141NH
THE SHEFFIELD AND DISTRICT LAW SOCIETY LTD,9844,NULL,NULL,SOUTH YORKSHIRE,S1   2EF,"8 CAMPO LANE,",SHEFFIELD,1,15,182,605,"8 CAMPO LANE, , SHEFFIELD , SOUTH YORKSHIRE ,  ,  , S1   2EF",2018-12-31 00:00:00.000,11866,42493,21418,NULL,16531,23501,9209,274,1875-09-11,1,0,NULL,1,NULL,NULL,18992,16531,S12EF
T & S PROPERTIES LIMITED,9850,NULL,NULL,LONDON,SE1  2AF,1 MORE LONDON PLACE,NULL,5,17,182,358,"1 MORE LONDON PLACE ,  , LONDON ,  ,  , SE1  2AF",NULL,NULL,NULL,NULL,NULL,NULL,NULL,NULL,299,1875-09-15,NULL,0,2019-11-30,5,NULL,NULL,NULL,NULL,SE12AF
NOTTINGHAMSHIRE LAW SOCIETY,9872,ENGLAND,NULL,NOTTINGHAM,NG1  5HR,11 CLARENDON STREET,CLARENDON STREET,1,15,182,733,"11 CLARENDON STREET , CLARENDON STREET , NOTTINGHAM ,  , ENGLAND , NG1  5HR",NULL,NULL,NULL,NULL,NULL,NULL,NULL,NULL,229,1875-09-23,NULL,0,NULL,5,NULL,NULL,NULL,NULL,NG15HR
HYDE CLUB LIMITED,9918,NULL,NULL,CHESHIRE,SK14 1DJ,"BOWLING GREEN STREET,","HYDE,",1,17,182,725,"BOWLING GREEN STREET, , HYDE, , CHESHIRE ,  ,  , SK14 1DJ",2020-02-15 00:00:00.000,NULL,2438,2114,NULL,2438,0,0,320,1875-10-09,1,0,NULL,1,NULL,NULL,2438,2438,SK141DJ
RAVENHEAD BRICK COMPANY LIMITED,10073,NULL,LEICESTERSHIRE,LUTTERWORTH,LE17 4JP,THE OLD RECTORY,MISTERTON,1,17,182,756,"THE OLD RECTORY , MISTERTON , LUTTERWORTH , LEICESTERSHIRE ,  , LE17 4JP",NULL,NULL,NULL,NULL,NULL,NULL,NULL,NULL,143,1875-12-07,NULL,0,NULL,5,NULL,NULL,NULL,NULL,LE174JP
WESTON HOUSE (JS) LIMITED,10094,NULL,SOUTH YORKSHIRE,SHEFFIELD,S9   1JD,FIRTH HOUSE PO BOX 644,MEADOWHALL ROAD,5,17,182,635,"FIRTH HOUSE PO BOX 644 , MEADOWHALL ROAD , SHEFFIELD , SOUTH YORKSHIRE ,  , S9   1JD",NULL,NULL,NULL,NULL,NULL,NULL,NULL,NULL,274,1875-12-14,NULL,0,2019-09-30,5,NULL,NULL,NULL,NULL,S91JD
CARDIGAN MERCANTILE COMPANY LIMITED,10139,WALES,PEMBROKESHIRE,CARDIGAN,SA43 3EJ,CRUG Y DERI HIGH STREET,ST. DOGMAELS,1,17,182,680,"CRUG Y DERI HIGH STREET , ST. DOGMAELS , CARDIGAN , PEMBROKESHIRE , WALES , SA43 3EJ",2018-12-31 00:00:00.000,102634,1434922,1327749,NULL,1215061,127141,4539,235,1875-12-24,1,0,NULL,2,NULL,NULL,1388472,1215061,SA433EJ
THE SEA INSURANCE COMPANY LIMITED,10150,NULL,WEST MIDLANDS,BIRMINGHAM,B3   3HN,C/O TENEO FINANCIAL ADVISORY LIMITED 156 GREAT CHARLES STREET,QUEENSWAY,9,17,182,757,"C/O TENEO FINANCIAL ADVISORY LIMITED 156 GREAT CHARLES STREET , QUEENSWAY , BIRMINGHAM , WEST MIDLANDS ,  , B3   3HN",NULL,NULL,NULL,NULL,NULL,NULL,NULL,NULL,23,1875-12-30,NULL,0,NULL,5,NULL,NULL,NULL,NULL,B33HN
THE FINE ART SOCIETY LIMITED,10262,UNITED KINGDOM,NULL,LONDON,EC2A 2EW,LEVEL 13 BROADGATE TOWER,20 PRIMROSE STREET,1,17,182,476,"LEVEL 13 BROADGATE TOWER , 20 PRIMROSE STREET , LONDON ,  , UNITED KINGDOM , EC2A 2EW",NULL,NULL,NULL,NULL,NULL,NULL,NULL,NULL,71,1876-02-10,NULL,0,NULL,5,NULL,NULL,NULL,NULL,EC2A2EW
BRITANNIA STEAM SHIP INSURANCE ASSOCIATION LIMITED(THE),10340,NULL,NULL,LONDON,EC4R 9AN,REGIS HOUSE,45 KING WILLIAM STREET,1,15,182,587,"REGIS HOUSE , 45 KING WILLIAM STREET , LONDON ,  ,  , EC4R 9AN",NULL,NULL,NULL,NULL,NULL,NULL,NULL,NULL,71,1876-02-19,NULL,0,NULL,5,NULL,NULL,NULL,NULL,EC4R9AN
LONDON STEAM SHIP OWNERS' MUTUAL INSURANCE ASSOCIATION LIMITED,10341,NULL,NULL,NULL,E1   8HQ,50 LEMAN STREET,LONDON,1,15,182,587,"50 LEMAN STREET , LONDON ,  ,  ,  , E1   8HQ",NULL,NULL,NULL,NULL,NULL,NULL,NULL,NULL,337,1876-02-19,NULL,0,NULL,5,NULL,NULL,NULL,NULL,E18HQ
THE UNITED KINGDOM MUTUAL STEAM SHIP ASSURANCE ASSOCIATION (LONDON) LIMITED,10375,NULL,NULL,LONDON,EC3M 4ST,90 FENCHURCH STREET,NULL,1,15,182,587,"90 FENCHURCH STREET ,  , LONDON ,  ,  , EC3M 4ST",NULL,NULL,NULL,NULL,NULL,NULL,NULL,NULL,71,1876-02-26,NULL,0,NULL,5,NULL,NULL,NULL,NULL,EC3M4ST
SUTTON-IN-ASHFIELD TOWN HALL COMPANY LTD,10416,NULL,NOTTINGHAMSHIRE,SUTTON-IN-ASHFIELD,NG17 1DH,1 LOW STREET,NULL,1,17,182,598,"1 LOW STREET ,  , SUTTON-IN-ASHFIELD , NOTTINGHAMSHIRE ,  , NG17 1DH",2019-03-31 00:00:00.000,95699,1990692,NULL,NULL,1419967,490133,31474,9,1876-03-09,1,0,NULL,2,NULL,NULL,1821310,1419967,NG171DH
PENRITH FARMERS AND KIDDS PUBLIC LIMITED COMPANY(THE),10553,NULL,CUMBRIA,PENRITH,CA11 0DN,AGRICULTURAL HALL,SKIRSGILL,1,21,182,601,"AGRICULTURAL HALL , SKIRSGILL , PENRITH , CUMBRIA ,  , CA11 0DN",NULL,NULL,NULL,NULL,NULL,NULL,NULL,NULL,112,1876-05-01,NULL,0,NULL,5,NULL,NULL,NULL,NULL,CA110DN
EDGBASTON HIGH SCHOOL FOR GIRLS,10631,NULL,NULL,BIRMINGHAM,B15  3TS,WESTBOURNE ROAD,EDGBASTON,1,17,182,757,"WESTBOURNE ROAD , EDGBASTON , BIRMINGHAM ,  ,  , B15  3TS",NULL,NULL,NULL,NULL,NULL,NULL,NULL,NULL,23,1876-05-25,NULL,0,NULL,5,NULL,NULL,NULL,NULL,B153TS
"COSENS AND COMPANY,LIMITED",10673,NULL,HAMPSHIRE,SOUTHAMPTON,SO14 3EX,FIRST FLOOR DUKES KEEP,MARSH LANE,1,17,182,757,"FIRST FLOOR DUKES KEEP , MARSH LANE , SOUTHAMPTON , HAMPSHIRE ,  , SO14 3EX",NULL,NULL,NULL,NULL,NULL,NULL,NULL,NULL,297,1876-06-10,NULL,0,NULL,5,NULL,NULL,NULL,NULL,SO143EX
"TENBY AND COUNTY CLUB COMPANY,LIMITED(THE)",10747,NULL,PEMBROKESHIRE,TENBY,SA70 8AP,THE TENBY AND COUNTY CLUB,THE CROFT,1,17,182,731,"THE TENBY AND COUNTY CLUB , THE CROFT , TENBY , PEMBROKESHIRE ,  , SA70 8AP",NULL,NULL,NULL,NULL,NULL,NULL,NULL,NULL,235,1876-07-11,NULL,0,NULL,5,NULL,NULL,NULL,NULL,SA708AP
"LIVERPOOL UNION BUILDINGS COMPANY,LIMITED",10931,UNITED KINGDOM,MERSEYSIDE,WIRRAL,CH47 2BG,35B MARKET STREET,HOYLAKE,1,17,182,585,"35B MARKET STREET , HOYLAKE , WIRRAL , MERSEYSIDE , UNITED KINGDOM , CH47 2BG",2019-03-31 00:00:00.000,NULL,888179,671668,NULL,861649,26530,0,370,1876-10-17,1,0,NULL,2,NULL,NULL,861649,861649,CH472BG
NORTHUMBERLAND WHINSTONE COMPANY LIMITED(THE),10982,NULL,NULL,BIRMINGHAM,B37  7BQ,PORTLAND HOUSE BICKENHILL LANE,SOLIHULL,1,17,182,757,"PORTLAND HOUSE BICKENHILL LANE , SOLIHULL , BIRMINGHAM ,  ,  , B37  7BQ",NULL,NULL,NULL,NULL,NULL,NULL,NULL,NULL,279,1876-11-08,NULL,0,NULL,5,NULL,NULL,NULL,NULL,B377BQ
BARTON-UPON-IRWELL LIBERAL CLUB BUILDING COMPANY LIMITED,10994,NULL,WARRINGTON,DARESBURY,NULL,7400 DARESBURY PARK,NULL,5,17,182,601,"7400 DARESBURY PARK ,  , DARESBURY , WARRINGTON ,  , ",NULL,NULL,NULL,NULL,NULL,NULL,NULL,NULL,383,1876-11-16,NULL,0,2019-04-30,5,NULL,NULL,NULL,NULL,NULL
THE TOLLESBURY AND MERSEA NATIVE OYSTER FISHERY COMPANY LIMITED,11066,NULL,ESSEX,COLCHESTER,CO5  8QA,15 HIGH STREET,WEST MERSEA,1,17,182,64,"15 HIGH STREET , WEST MERSEA , COLCHESTER , ESSEX ,  , CO5  8QA",NULL,NULL,NULL,NULL,NULL,NULL,NULL,NULL,73,1876-12-15,NULL,0,NULL,5,NULL,NULL,NULL,NULL,CO58QA
GENCO (FC) LIMITED,11076,NULL,NULL,LONDON,WC2H 7WR,P O BOX 60317,10 ORANGE STREET,1,17,182,757,"P O BOX 60317 , 10 ORANGE STREET , LONDON ,  ,  , WC2H 7WR",NULL,NULL,NULL,NULL,NULL,NULL,NULL,NULL,168,1876-12-20,NULL,0,NULL,5,NULL,NULL,NULL,NULL,WC2H7WR
CABLE AND WIRELESS (WEST INDIES) LIMITED,11116,UNITED KINGDOM,NULL,LONDON,W6   8BS,GRIFFIN HOUSE,161 HAMMERSMITH ROAD,1,17,182,554,"GRIFFIN HOUSE , 161 HAMMERSMITH ROAD , LONDON ,  , UNITED KINGDOM , W6   8BS",NULL,NULL,NULL,NULL,NULL,NULL,NULL,NULL,142,1877-01-09,NULL,0,NULL,5,NULL,NULL,NULL,NULL,W68BS
BROOKMANN HOME MANCHESTER 1877 LTD,11136,NULL,NULL,MANCHESTER,M2   3AE,KPMG LLP,1 ST PETER'S SQUARE,1,17,182,413,"KPMG LLP , 1 ST PETER'S SQUARE , MANCHESTER ,  ,  , M2   3AE",NULL,NULL,NULL,NULL,NULL,NULL,NULL,NULL,189,1877-01-19,NULL,0,NULL,5,NULL,NULL,NULL,NULL,M23AE
OLD TRAFFORD BOWLING CLUB LIMITED,11155,NULL,MANCHESTER,OLD TRAFFORD,M16  0PW,PAVILION,49 TALBOT ROAD,1,17,182,651,"PAVILION , 49 TALBOT ROAD , OLD TRAFFORD , MANCHESTER ,  , M16  0PW",2020-02-28 00:00:00.000,NULL,20524,2317,NULL,19927,658,0,338,1877-01-26,1,0,NULL,1,NULL,NULL,19927,19927,M160PW
FOSECO (GB) LIMITED,11222,NULL,NULL,LONDON,EC4A 2AE,165 FLEET STREET,NULL,5,17,182,572,"165 FLEET STREET ,  , LONDON ,  ,  , EC4A 2AE",NULL,NULL,NULL,NULL,NULL,NULL,NULL,NULL,71,1877-02-20,NULL,0,2021-08-31,5,NULL,NULL,NULL,NULL,EC4A2AE
IBSTOCK BRICK CATTYBROOK LIMITED,11298,NULL,NULL,LEICESTERSHIRE,LE67 6HS,LEICESTER ROAD,IBSTOCK,1,17,182,572,"LEICESTER ROAD , IBSTOCK , LEICESTERSHIRE ,  ,  , LE67 6HS",NULL,NULL,NULL,NULL,NULL,NULL,NULL,NULL,225,1877-03-15,NULL,0,NULL,5,NULL,NULL,NULL,NULL,LE676HS
 METROPOLITAN TELEVISION LIMITED,11374,NULL,NULL,LONDON,SE1  9UY,LUDGATE HOUSE,245 BLACKFRIARS ROAD,5,17,182,757,"LUDGATE HOUSE , 245 BLACKFRIARS ROAD , LONDON ,  ,  , SE1  9UY",NULL,NULL,NULL,NULL,NULL,NULL,NULL,NULL,299,1877-04-17,NULL,0,2013-11-29,5,NULL,NULL,NULL,NULL,SE19UY
 PRESTAGE AND BROSELEY TILERIES COMPANY LIMITED(THE),11447,NULL,NULL,LIVERPOOL,L3   9SJ,HILL DICKINSON LLP,ST. PAULS SQUARE,5,17,182,757,"HILL DICKINSON LLP , ST. PAULS SQUARE , LIVERPOOL ,  ,  , L3   9SJ",NULL,NULL,NULL,NULL,NULL,NULL,NULL,NULL,184,1877-05-09,NULL,0,2015-09-30,5,NULL,NULL,NULL,NULL,L39SJ
NORTHWICH VICTORIA CLUB COMPANY LIMITED,11462,NULL,CHESHIRE.,TARPORLEY,CW6  0TP,55 WOODLANDS WAY,NULL,1,17,182,601,"55 WOODLANDS WAY ,  , TARPORLEY , CHESHIRE. ,  , CW6  0TP",2019-12-31 00:00:00.000,NULL,7674,NULL,NULL,7578,96,0,65,1877-05-16,1,0,NULL,1,NULL,NULL,7578,7578,CW60TP
BRITISH XYLONITE COMPANY LIMITED(THE),11530,NULL,HERTFORDSHIRE,HEMEL HEMPSTEAD,HP2  4UL,BREAKSPEAR PARK,BREAKSPEAR WAY,9,17,182,635,"BREAKSPEAR PARK , BREAKSPEAR WAY , HEMEL HEMPSTEAD , HERTFORDSHIRE ,  , HP2  4UL",NULL,NULL,NULL,NULL,NULL,NULL,NULL,NULL,84,1877-06-13,NULL,0,NULL,5,NULL,NULL,NULL,NULL,HP24UL
NESCO FURNISHING INTERNATIONAL LIMITED,11538,NULL,NULL,PETERBOROUGH,PE2  8BQ,GLEBE WORKS,GLEBE COURT,1,17,182,757,"GLEBE WORKS , GLEBE COURT , PETERBOROUGH ,  ,  , PE2  8BQ",NULL,NULL,NULL,NULL,NULL,NULL,NULL,NULL,238,1877-06-18,NULL,0,NULL,5,NULL,NULL,NULL,NULL,PE28BQ
FOLGATE INSURANCE COMPANY LIMITED,11615,NULL,NULL,LONDON,EC3A 3DH,80 LEADENHALL STREET,NULL,1,17,182,587,"80 LEADENHALL STREET ,  , LONDON ,  ,  , EC3A 3DH",NULL,NULL,NULL,NULL,NULL,NULL,NULL,NULL,71,1877-07-21,NULL,0,NULL,5,NULL,NULL,NULL,NULL,EC3A3DH
KEMPTON PARK HOLDING COMPANY LIMITED,11675,NULL,NULL,LONDON,WC1V 6LS,75 HIGH HOLBORN,NULL,1,17,182,757,"75 HIGH HOLBORN ,  , LONDON ,  ,  , WC1V 6LS",2019-12-31 00:00:00.000,NULL,0,NULL,NULL,774095,0,0,51,1877-08-29,1,0,NULL,1,NULL,NULL,NULL,774095,WC1V6LS
PRESTWICH LIBERAL CLUB BUILDING CO LIMITED,11692,ENGLAND,NULL,MANCHESTER,M25  3AJ,509 BURY NEW ROAD,PRESTWICH,1,17,182,601,"509 BURY NEW ROAD , PRESTWICH , MANCHESTER ,  , ENGLAND , M25  3AJ",2018-09-30 00:00:00.000,NULL,1612853,1600003,NULL,1472826,140027,0,47,1877-09-08,1,0,NULL,2,NULL,NULL,1599588,1472826,M253AJ
CLIFTON HIGH SCHOOL,11701,NULL,NULL,BRISTOL,BS8  3JD,COLLEGE ROAD,CLIFTON,1,16,182,690,"COLLEGE ROAD , CLIFTON , BRISTOL ,  ,  , BS8  3JD",NULL,NULL,NULL,NULL,NULL,NULL,NULL,NULL,40,1877-09-12,NULL,0,NULL,5,NULL,NULL,NULL,NULL,BS83JD
ULVERSTON AUCTION MART PUBLIC LIMITED COMPANY(THE),11717,NULL,NULL,CUMBRIA,LA12 9AU,NORTH LONSDALE TERRACE,ULVERSTON,1,21,182,634,"NORTH LONSDALE TERRACE , ULVERSTON , CUMBRIA ,  ,  , LA12 9AU",NULL,NULL,NULL,NULL,NULL,NULL,NULL,NULL,288,1877-09-22,NULL,0,NULL,5,NULL,NULL,NULL,NULL,LA129AU
DERBY LAND BUILDING & INVESTMENT COMPANY LIMITED(THE),11734,NULL,DERBYSHIRE,DERBY,DE24 8JY,18 ST CHRISTOPHERS WAY,PRIDE PARK,1,17,182,599,"18 ST CHRISTOPHERS WAY , PRIDE PARK , DERBY , DERBYSHIRE ,  , DE24 8JY",2018-12-31 00:00:00.000,44829,2735180,2661302,NULL,2362520,23534,29049,89,1877-10-01,1,0,NULL,2,NULL,NULL,2711646,2362520,DE248JY
BROUGHTON AUCTION CO LIMITED(THE),11771,NULL,CUMBRIA,CARLISLE,CA1  2RS,BORDERWAY,ROSEHILL,1,17,182,57,"BORDERWAY , ROSEHILL , CARLISLE , CUMBRIA ,  , CA1  2RS",2018-12-31 00:00:00.000,19943,120619,NULL,NULL,112268,8351,4873,55,1877-10-20,1,0,NULL,1,NULL,NULL,112268,112268,CA12RS
BERTHON BOAT COMPANY LIMITED,11785,ENGLAND,HAMPSHIRE,LYMINGTON,SO41 3YL,THE SHIPYARD,BATH ROAD,1,17,182,336,"THE SHIPYARD , BATH ROAD , LYMINGTON , HAMPSHIRE , ENGLAND , SO41 3YL",NULL,NULL,NULL,NULL,NULL,NULL,NULL,NULL,206,1877-10-26,NULL,0,NULL,5,NULL,NULL,NULL,NULL,SO413YL
HOLDSWORTH & GIBBS LIMITED,11807,NULL,MANCHESTER,SWINTON,NULL,MOORSIDE MILLS,NULL,5,17,182,757,"MOORSIDE MILLS ,  , SWINTON , MANCHESTER ,  , ",NULL,NULL,NULL,NULL,NULL,NULL,NULL,NULL,383,1876-01-01,NULL,0,2021-12-31,5,NULL,NULL,NULL,NULL,NULL
MICRONCLEAN (SKEGNESS) LIMITED,11872,NULL,NULL,LINCS,PE25 1SQ,ROMAN BANK,SKEGNESS,1,17,182,757,"ROMAN BANK , SKEGNESS , LINCS ,  ,  , PE25 1SQ",2018-12-31 00:00:00.000,NULL,0,NULL,NULL,NULL,0,0,104,1877-12-03,1,0,NULL,1,NULL,NULL,NULL,NULL,PE251SQ
TAMWORTH HERALD COMPANY LIMITED(THE),11898,NULL,NULL,LEICESTER,LE1  1ZP,NORTHCLIFFE ACCOUNTING CENTRE,PO BOX 6795,5,17,182,757,"NORTHCLIFFE ACCOUNTING CENTRE , PO BOX 6795 , LEICESTER ,  ,  , LE1  1ZP",NULL,NULL,NULL,NULL,NULL,NULL,NULL,NULL,24,1877-12-13,NULL,0,2013-01-31,5,NULL,NULL,NULL,NULL,LE11ZP
GODIVA LIMITED,11943,NULL,NULL,NULL,EC4V 6JA,100 NEW BRIDGE STREET,LONDON,1,17,182,281,"100 NEW BRIDGE STREET , LONDON ,  ,  ,  , EC4V 6JA",NULL,NULL,NULL,NULL,NULL,NULL,NULL,NULL,71,1878-01-01,NULL,0,NULL,5,1,NULL,NULL,NULL,EC4V6JA
DEJOO TEA COMPANY LIMITED,11972,NULL,KENT,MAIDSTONE,ME17 4AB,"LINTON PARK,",LINTON,1,17,182,585,"LINTON PARK, , LINTON , MAIDSTONE , KENT ,  , ME17 4AB",NULL,NULL,NULL,NULL,NULL,NULL,NULL,NULL,186,1878-01-15,NULL,0,NULL,5,NULL,NULL,NULL,NULL,ME174AB
LIVERPOOL COMMERCIAL SALE-ROOM COMPANY LIMITED,11998,UNITED KINGDOM,MERSEYSIDE,LIVERPOOL,L22  4QQ,42 CROSBY ROAD NORTH,NULL,1,17,182,358,"42 CROSBY ROAD NORTH ,  , LIVERPOOL , MERSEYSIDE , UNITED KINGDOM , L22  4QQ",2019-12-31 00:00:00.000,NULL,1335877,1032090,NULL,1259791,69257,0,271,1878-01-26,1,0,NULL,2,NULL,NULL,1269585,1259791,L224QQ
THE HEREFORD CATTLE SOCIETY,12100,NULL,NULL,NULL,HR1  2LL,3 OFFA STREET,HEREFORD,1,15,182,44,"3 OFFA STREET , HEREFORD ,  ,  ,  , HR1  2LL",NULL,NULL,NULL,NULL,NULL,NULL,NULL,NULL,153,1878-03-05,NULL,0,NULL,5,NULL,NULL,NULL,NULL,HR12LL
ROYAL SCHOOL OF NEEDLEWORK(THE),12192,NULL,SURREY,EAST MOLESEY,KT8  9AU,APARTMENT 12A,HAMPTON COURT PALACE,1,17,182,695,"APARTMENT 12A , HAMPTON COURT PALACE , EAST MOLESEY , SURREY ,  , KT8  9AU",NULL,NULL,NULL,NULL,NULL,NULL,NULL,NULL,253,1878-04-16,NULL,0,NULL,5,NULL,NULL,NULL,NULL,KT89AU
HMG PROPERTIES LIMITED,12255,NULL,CHESHIRE,ALTRINCHAM,WA14 1TJ,ST JOHN'S HOUSE,BARRINGTON ROAD,1,17,182,601,"ST JOHN'S HOUSE , BARRINGTON ROAD , ALTRINCHAM , CHESHIRE ,  , WA14 1TJ",NULL,NULL,NULL,NULL,NULL,NULL,NULL,NULL,338,1878-05-11,NULL,0,NULL,5,NULL,NULL,NULL,NULL,WA141TJ
TRAFALGAR HOUSE STEAM-SHIP COMPANY LIMITED,12286,NULL,SURREY,REDHILL,RH1  1RH,SURREY HOUSE,36-44 HIGH STREET,5,17,182,757,"SURREY HOUSE , 36-44 HIGH STREET , REDHILL , SURREY ,  , RH1  1RH",NULL,NULL,NULL,NULL,NULL,NULL,NULL,NULL,249,1878-05-23,NULL,0,2020-04-30,5,NULL,NULL,NULL,NULL,RH11RH
MILTON HALL(SOUTHEND)BRICK COMPANY LIMITED(THE),12289,NULL,NULL,MAIDENHEAD,SL6  4JJ,HANSON HOUSE,14 CASTLE HILL,1,17,182,610,"HANSON HOUSE , 14 CASTLE HILL , MAIDENHEAD ,  ,  , SL6  4JJ",NULL,NULL,NULL,NULL,NULL,NULL,NULL,NULL,369,1878-05-24,NULL,0,NULL,5,NULL,NULL,NULL,NULL,SL64JJ
SOUTHAMPTON MASONIC HALL COMPANY LIMITED(THE),12301,NULL,NULL,NULL,SO14 2DD,ALBION PLACE,SOUTHAMPTON,1,17,182,601,"ALBION PLACE , SOUTHAMPTON ,  ,  ,  , SO14 2DD",2019-12-31 00:00:00.000,NULL,244087,199507,NULL,199037,45050,0,297,1878-05-29,1,0,NULL,1,NULL,NULL,232549,199037,SO142DD
METROPOLITAN LAND AND HOUSE COMPANY LIMITED(THE),12377,NULL,NULL,DORSET,DT1  1HA,34 HIGH EAST STREET,DORCHESTER,1,17,182,358,"34 HIGH EAST STREET , DORCHESTER , DORSET ,  ,  , DT1  1HA",2020-06-30 00:00:00.000,115878,5284054,5118187,NULL,4657065,351206,49989,388,1878-07-09,1,0,NULL,3,NULL,NULL,5090526,4657065,DT11HA
SHIRE HORSE SOCIETY.(THE),12383,ENGLAND,MARKET HARBOROUGH,ROCKINGHAM,LE16 8TH,THE OLD DAIRY,ROCKINGHAM CASTLE AND PARK,1,14,182,750,"THE OLD DAIRY , ROCKINGHAM CASTLE AND PARK , ROCKINGHAM , MARKET HARBOROUGH , ENGLAND , LE16 8TH",NULL,NULL,NULL,NULL,NULL,NULL,NULL,NULL,393,1878-07-11,NULL,0,NULL,5,NULL,NULL,NULL,NULL,LE168TH
GUILD OF ST.GEORGE(THE),12583,ENGLAND,SOUTH YORKSHIRE,SHEFFIELD,S8   9FL,MEERSBROOK HALL,BROOK RD,1,14,182,714,"MEERSBROOK HALL , BROOK RD , SHEFFIELD , SOUTH YORKSHIRE , ENGLAND , S8   9FL",NULL,NULL,NULL,NULL,NULL,NULL,NULL,NULL,274,1878-10-25,NULL,0,NULL,5,NULL,NULL,NULL,NULL,S89FL
REFLEX PLUS LTD,12592,ENGLAND,NULL,MANSFIELD,NG18 5BU,"C/O REFLEX LABELS, VISION HOUSE",HAMILTON WAY,1,17,182,162,"C/O REFLEX LABELS, VISION HOUSE , HAMILTON WAY , MANSFIELD ,  , ENGLAND , NG18 5BU",NULL,NULL,NULL,NULL,NULL,NULL,NULL,NULL,190,1878-10-29,NULL,0,NULL,5,NULL,NULL,NULL,NULL,NG185BU
JHANZIE TEA ASSOCIATION LIMITED,12593,NULL,KENT,MAIDSTONE,ME17 4AB,"LINTON PARK,",LINTON,1,17,182,610,"LINTON PARK, , LINTON , MAIDSTONE , KENT ,  , ME17 4AB",NULL,NULL,NULL,NULL,NULL,NULL,NULL,NULL,186,1878-10-29,NULL,0,NULL,5,NULL,NULL,NULL,NULL,ME174AB
LIVERPOOL REVERSIONARY COMPANY LIMITED(THE),12631,NULL,HAMPSHIRE,FAREHAM,PO15 7JZ,THE ZURICH CENTRE,3000 PARKWAY WHITELEY,1,17,182,585,"THE ZURICH CENTRE , 3000 PARKWAY WHITELEY , FAREHAM , HAMPSHIRE ,  , PO15 7JZ",NULL,NULL,NULL,NULL,NULL,NULL,NULL,NULL,368,1878-11-16,NULL,0,NULL,5,NULL,NULL,NULL,NULL,PO157JZ
TI HARTLEY & SUGDEN LIMITED,12651,NULL,NULL,LONDON,NW10 0JP,RADIATION HOUSE,NORTH CIRCULAR ROAD,1,17,182,757,"RADIATION HOUSE , NORTH CIRCULAR ROAD , LONDON ,  ,  , NW10 0JP",NULL,NULL,NULL,NULL,NULL,NULL,NULL,NULL,36,1878-11-29,NULL,0,NULL,5,NULL,NULL,NULL,NULL,NW100JP
EASTWATER LIMITED,12697,NULL,NULL,CHESTER.,CH1  2LE,WATERGATE CHAMBERS,15A WATERGATE ROW,1,17,182,601,"WATERGATE CHAMBERS , 15A WATERGATE ROW , CHESTER. ,  ,  , CH1  2LE",2018-03-31 00:00:00.000,441191,4083336,3551569,NULL,3972382,110954,67625,65,1878-12-20,1,0,NULL,3,NULL,NULL,4002382,3972382,CH12LE
PHILOLOGICAL SOCIETY.(THE),12722,ENGLAND,NULL,LONDON,WC2A 2JR,7 BELL YARD,NULL,1,15,182,622,"7 BELL YARD ,  , LONDON ,  , ENGLAND , WC2A 2JR",2019-12-31 00:00:00.000,NULL,675348,NULL,NULL,669468,5880,0,364,1879-01-02,1,0,NULL,2,NULL,NULL,669468,669468,WC2A2JR
BOLTON LAW SOCIETY,12738,NULL,LANCS,BOLTON,BL1  1JZ,13 MAWDSLEY STREET,NULL,1,15,182,680,"13 MAWDSLEY STREET ,  , BOLTON , LANCS ,  , BL1  1JZ",2018-12-31 00:00:00.000,3798,3962,NULL,NULL,2962,1000,0,29,1879-01-10,1,0,NULL,1,NULL,NULL,2962,2962,BL11JZ
SKEGNESS PIER CO LIMITED,12745,UNITED KINGDOM,LINCOLNSHIRE,SKEGNESS,PE25 2AT,27-29 LUMLEY AVENUE,NULL,1,17,182,731,"27-29 LUMLEY AVENUE ,  , SKEGNESS , LINCOLNSHIRE , UNITED KINGDOM , PE25 2AT",2018-12-31 00:00:00.000,377058,1623656,1122997,NULL,571792,1000678,69998,104,1879-01-11,1,0,NULL,2,NULL,NULL,1207931,571792,PE252AT
SWANSEA & DISTRICT LAW SOCIETY,12851,NULL,NULL,SWANSEA,SA1  6AT,11 CALVERT TERRACE,NULL,1,15,182,605,"11 CALVERT TERRACE ,  , SWANSEA ,  ,  , SA1  6AT",2016-12-31 00:00:00.000,26851,27223,NULL,NULL,10469,16754,0,318,1879-02-22,1,0,NULL,1,NULL,NULL,NULL,10469,SA16AT
 EASTERN COUNTIES LEATHER LIMITED,12882,NULL,NULL,PETERBOROUGH,PE2  6LR,2 AXON COMMERCE ROAD,LYNCHWOOD,5,17,182,757,"2 AXON COMMERCE ROAD , LYNCHWOOD , PETERBOROUGH ,  ,  , PE2  6LR",NULL,NULL,NULL,NULL,NULL,NULL,NULL,NULL,238,1879-03-05,NULL,0,2013-07-31,5,NULL,NULL,NULL,NULL,PE26LR
PRESTWICH CONSERVATIVE CLUB BUILDING COMPANY LIMITED,12886,NULL,NULL,MANCHESTER,M25  1AN,35 CHURCH LANE,PRESTWICH,1,17,182,598,"35 CHURCH LANE , PRESTWICH , MANCHESTER ,  ,  , M25  1AN",2020-03-31 00:00:00.000,NULL,83462,83462,NULL,27801,55023,0,47,1879-03-07,1,0,NULL,1,NULL,NULL,28439,27801,M251AN
F&C INVESTMENT TRUST PLC,12901,NULL,NULL,LONDON,EC2A 2NY,EXCHANGE HOUSE,PRIMROSE STREET,1,21,182,585,"EXCHANGE HOUSE , PRIMROSE STREET , LONDON ,  ,  , EC2A 2NY",NULL,NULL,NULL,NULL,NULL,NULL,NULL,NULL,71,1879-03-15,NULL,0,NULL,5,NULL,NULL,NULL,NULL,EC2A2NY
COMBINED ESTATES COMPANY LIMITED (THE),12929,UNITED KINGDOM,BERKSHIRE,HUNGERFORD,RG17 0EP,3-4 FAULKNOR SQUARE,CHARNHAM STREET,5,17,182,598,"3-4 FAULKNOR SQUARE , CHARNHAM STREET , HUNGERFORD , BERKSHIRE , UNITED KINGDOM , RG17 0EP",2017-10-31 00:00:00.000,NULL,0,NULL,NULL,0,0,0,355,1879-03-26,1,0,2021-04-30,1,NULL,NULL,0,0,RG170EP
WATTS AND COMPANY LIMITED,12934,NULL,NULL,LONDON,SW1P 3QE,7 TUFTON STREET,WESTMINSTER,1,17,182,481,"7 TUFTON STREET , WESTMINSTER , LONDON ,  ,  , SW1P 3QE",NULL,NULL,NULL,NULL,NULL,NULL,NULL,NULL,364,1879-03-31,NULL,0,NULL,5,NULL,NULL,NULL,NULL,SW1P3QE
PORTSMOUTH CORNERSTONE LIMITED,12980,NULL,HAMPSHIRE,WATERLOOVILLE,PO7  5LX,PURBROOK CENTRE STAKES ROAD,STAKES ROAD,1,17,182,750,"PURBROOK CENTRE STAKES ROAD , STAKES ROAD , WATERLOOVILLE , HAMPSHIRE ,  , PO7  5LX",2018-12-31 00:00:00.000,13156,693811,378960,NULL,622271,71540,301695,151,1879-04-17,1,0,NULL,2,NULL,NULL,685271,622271,PO75LX
CENTURION SAFETY PRODUCTS LTD,13067,NULL,NORFOLK,THETFORD,IP24 1HZ,HOWLETT WAY,FISONS WAY INDUSTRIAL ESTATE,1,17,182,196,"HOWLETT WAY , FISONS WAY INDUSTRIAL ESTATE , THETFORD , NORFOLK ,  , IP24 1HZ",NULL,NULL,NULL,NULL,NULL,NULL,NULL,NULL,35,1879-05-16,NULL,1,NULL,5,1,1,NULL,NULL,IP241HZ
 EQUITABLE SERVICES AND CONSULTANCY LIMITED,13101,NULL,NULL,LONDON,SE1  2AF,1 MORE LONDON PLACE,NULL,5,17,182,539,"1 MORE LONDON PLACE ,  , LONDON ,  ,  , SE1  2AF",NULL,NULL,NULL,NULL,NULL,NULL,NULL,NULL,299,1879-05-28,NULL,0,2014-12-31,5,NULL,NULL,NULL,NULL,SE12AF
FUTURES FOR WOMEN,13103,ENGLAND,NULL,RUGBY,CV23 9RL,"ARCHWAY COTTAGE, 2 CHURCH STREET",MARTON,1,15,182,714,"ARCHWAY COTTAGE, 2 CHURCH STREET , MARTON , RUGBY ,  , ENGLAND , CV23 9RL",2019-12-31 00:00:00.000,NULL,200908,174574,NULL,199967,941,0,260,1879-05-28,1,0,NULL,1,NULL,NULL,199967,199967,CV239RL
NORTHAMPTONSHIRE LAW SOCIETY.,13181,NULL,NULL,NORTHAMPTON,NN4  5EA,"4 GRANGE PARK COURT,",ROMAN WAY,1,15,182,606,"4 GRANGE PARK COURT, , ROMAN WAY , NORTHAMPTON ,  ,  , NN4  5EA",NULL,NULL,NULL,NULL,NULL,NULL,NULL,NULL,396,1879-06-23,NULL,0,NULL,5,NULL,NULL,NULL,NULL,NN45EA
ENERGY TECHNIQUE LIMITED,13273,ENGLAND,WEST SUSSEX,CRAWLEY,RH10 9YX,C/O VOLUTION GROUP PLC,FLEMING WAY,1,17,182,610,"C/O VOLUTION GROUP PLC , FLEMING WAY , CRAWLEY , WEST SUSSEX , ENGLAND , RH10 9YX",NULL,NULL,NULL,NULL,NULL,NULL,NULL,NULL,82,1879-08-05,NULL,0,NULL,5,NULL,NULL,NULL,NULL,RH109YX
HULL INCORPORATED LAW SOCIETY,13295,NULL,NULL,HULL,HU1  1LF,BURY'S CHAMBERS,29 SCALE LANE,1,15,182,605,"BURY'S CHAMBERS , 29 SCALE LANE , HULL ,  ,  , HU1  1LF",NULL,NULL,NULL,NULL,NULL,NULL,NULL,NULL,172,1879-08-15,NULL,0,NULL,5,NULL,NULL,NULL,NULL,HU11LF
TRINITY WEEKLY NEWSPAPERS LIMITED,13297,NULL,NULL,LONDON,E14  5AP,ONE CANADA SQUARE,CANARY WHARF,1,17,182,757,"ONE CANADA SQUARE , CANARY WHARF , LONDON ,  ,  , E14  5AP",NULL,NULL,NULL,NULL,NULL,NULL,NULL,NULL,337,1879-08-16,NULL,0,NULL,5,NULL,NULL,NULL,NULL,E145AP
MONDI HOLCOMBE LIMITED,13327,UNITED KINGDOM,SURREY,WEYBRIDGE,KT13 0NY,"GROUND FLOOR, BUILDING 5 THE HEIGHTS",BROOKLANDS,1,17,182,153,"GROUND FLOOR, BUILDING 5 THE HEIGHTS , BROOKLANDS , WEYBRIDGE , SURREY , UNITED KINGDOM , KT13 0NY",NULL,NULL,NULL,NULL,NULL,NULL,NULL,NULL,115,1879-08-28,NULL,0,NULL,5,NULL,NULL,NULL,NULL,KT130NY
ROYAL ASSOCIATION OF BRITISH DAIRY FARMERS(THE),13393,ENGLAND,NULL,DAVENTRY,NN11 4BL,THE STABLES,CHURCH WALK,1,14,182,737,"THE STABLES , CHURCH WALK , DAVENTRY ,  , ENGLAND , NN11 4BL",NULL,NULL,NULL,NULL,NULL,NULL,NULL,NULL,396,1879-10-01,NULL,0,NULL,5,NULL,NULL,NULL,NULL,NN114BL
THE PALESTINE EXPLORATION FUND,13606,UNITED KINGDOM,NULL,LONDON,SE10 9FP,5-6 DREADNOUGHT WALK,GREENWICH,1,16,182,720,"5-6 DREADNOUGHT WALK , GREENWICH , LONDON ,  , UNITED KINGDOM , SE10 9FP",NULL,NULL,NULL,NULL,NULL,NULL,NULL,NULL,136,1879-12-19,NULL,0,NULL,5,NULL,NULL,NULL,NULL,SE109FP
 THE REDDITCH & BROMSGROVE OBSERVER LIMITED,13631,NULL,BUCKINGHAMSHIRE,HIGH WYCOMBE,HP10 9TY,LOUDWATER MILL,STATION ROAD,5,17,182,757,"LOUDWATER MILL , STATION ROAD , HIGH WYCOMBE , BUCKINGHAMSHIRE ,  , HP10 9TY",NULL,NULL,NULL,NULL,NULL,NULL,NULL,NULL,386,1879-12-29,NULL,0,2016-12-30,5,NULL,NULL,NULL,NULL,HP109TY
 VOB 33 LIMITED,13655,NULL,NULL,LONDON,EC2A 4EG,2ND FLOOR 1 MARK SQUARE,LEONARD STREET,5,17,182,757,"2ND FLOOR 1 MARK SQUARE , LEONARD STREET , LONDON ,  ,  , EC2A 4EG",NULL,NULL,NULL,NULL,NULL,NULL,NULL,NULL,139,1880-01-06,NULL,0,2016-02-29,5,NULL,NULL,NULL,NULL,EC2A4EG
REXAM WCL LIMITED,13814,ENGLAND,BEDFORDSHIRE,LUTON,LU1  3LG,100 CAPABILITY GREEN,NULL,5,17,182,757,"100 CAPABILITY GREEN ,  , LUTON , BEDFORDSHIRE , ENGLAND , LU1  3LG",NULL,NULL,NULL,NULL,NULL,NULL,NULL,NULL,185,1880-02-26,NULL,0,2019-08-31,5,NULL,NULL,NULL,NULL,LU13LG
